{
"type": "FeatureCollection",
"name": "SGF_Runway",
"crs": { "type": "name", "properties": { "name": "urn:ogc:def:crs:OGC:1.3:CRS84" } },
"features": [
{ "type": "Feature", "properties": { "zIndex": 5, "fillColor": "#000000" }, "geometry": { "type": "Polygon", "coordinates": [ [ [ -93.400310530773254, 37.255373023769515 ], [ -93.386613723542325, 37.241471084366729 ], [ -93.380547660635727, 37.253589846597492 ], [ -93.380061890699196, 37.253436838415368 ], [ -93.386241386514314, 37.241087812466084 ], [ -93.38331183011887, 37.238113252930169 ], [ -93.383726163300054, 37.237849569778838 ], [ -93.386463706356139, 37.240638533975329 ], [ -93.388990835696262, 37.235577374131282 ], [ -93.389475739732731, 37.235733865521055 ], [ -93.386835177484059, 37.241019050799281 ], [ -93.400727245179368, 37.255113536121712 ], [ -93.400310530773254, 37.255373023769515 ] ] ] } }
]
}
