{
"type": "FeatureCollection",
"name": "SGF_buildings",
"crs": { "type": "name", "properties": { "name": "urn:ogc:def:crs:OGC:1.3:CRS84" } },
"features": [
{ "type": "Feature", "properties": { "fillColor": "#7d7d7d" }, "geometry": { "type": "Polygon", "coordinates": [ [ [ -93.397901723634561, 37.238399914932437 ], [ -93.397858983348513, 37.238466659368491 ], [ -93.397530211917385, 37.238364579618839 ], [ -93.397489115488469, 37.23843786765822 ], [ -93.397553225917548, 37.238460115798937 ], [ -93.397296784201288, 37.238987525682369 ], [ -93.397231029915062, 37.2389692038128 ], [ -93.397175138771772, 37.239076844732693 ], [ -93.397318154344319, 37.239125266737737 ], [ -93.397283633344045, 37.239197245336364 ], [ -93.397069931913791, 37.239143588569362 ], [ -93.396857874340739, 37.239578730761671 ], [ -93.396718146482513, 37.239535543829305 ], [ -93.396678693910758, 37.239603595953909 ], [ -93.39670335176811, 37.239610139424208 ], [ -93.396502801195112, 37.239995548821824 ], [ -93.396524171338115, 37.240003400945291 ], [ -93.396445266194689, 37.240159134557864 ], [ -93.39642389605163, 37.240151282450647 ], [ -93.396197043764175, 37.240604740302039 ], [ -93.39588306704745, 37.240502663447884 ], [ -93.396109919334933, 37.240050513668734 ], [ -93.396096768477676, 37.240042661550206 ], [ -93.396172385906823, 37.239889545075322 ], [ -93.396185536764079, 37.239893471142679 ], [ -93.39642389605163, 37.239438700315254 ], [ -93.396154303478127, 37.239352326265326 ], [ -93.396374580336982, 37.238920127354525 ], [ -93.396014575619901, 37.238801035016287 ], [ -93.396047452763014, 37.238736908294669 ], [ -93.396430471480272, 37.238846839784031 ], [ -93.396491294195016, 37.238859599678655 ], [ -93.396542253766853, 37.238747050789982 ], [ -93.396488006480695, 37.238730037571258 ], [ -93.396511020480872, 37.238681615312338 ], [ -93.39639923819432, 37.238643662709279 ], [ -93.396603076481611, 37.238237306916844 ], [ -93.39670335176811, 37.238266098703711 ], [ -93.396737872768384, 37.238201971527026 ], [ -93.396800339340288, 37.238220293583062 ], [ -93.396843079626322, 37.238154857648155 ], [ -93.396519239766675, 37.238030529215322 ], [ -93.396547185338306, 37.237963784393102 ], [ -93.397901723634561, 37.238399914932437 ] ] ] } },
{ "type": "Feature", "properties": { "fillColor": "#7d7d7d" }, "geometry": { "type": "Polygon", "coordinates": [ [ [ -93.390877522008523, 37.252694961936065 ], [ -93.390289021146785, 37.253057406363617 ], [ -93.390246280860751, 37.253019460999845 ], [ -93.390270938718103, 37.252998525618565 ], [ -93.390190389717446, 37.252916092498168 ], [ -93.390177238860232, 37.252921326349764 ], [ -93.390142717859959, 37.252882072453943 ], [ -93.390213403717638, 37.252843472769747 ], [ -93.390163266074381, 37.252795059578602 ], [ -93.39004244257346, 37.252863099730284 ], [ -93.3899709347872, 37.2528114153899 ], [ -93.389445722425961, 37.252269218353071 ], [ -93.389545175783866, 37.252207720041568 ], [ -93.389502435497846, 37.252159306441861 ], [ -93.389668465070542, 37.252059535074139 ], [ -93.389532024926638, 37.251927378698362 ], [ -93.389878878786462, 37.251702974024369 ], [ -93.38983038500038, 37.2516578313124 ], [ -93.390000524215978, 37.251548572752647 ], [ -93.389844357786188, 37.251395479653887 ], [ -93.391221910082635, 37.250542339765595 ], [ -93.391715067229313, 37.251042186700261 ], [ -93.390355597361619, 37.251895320928725 ], [ -93.390176416931681, 37.251730452183615 ], [ -93.390031757501973, 37.251828588384882 ], [ -93.390877522008523, 37.252694961936065 ] ] ] } },
{ "type": "Feature", "properties": { "fillColor": "#7d7d7d" }, "geometry": { "type": "Polygon", "coordinates": [ [ [ -93.391083826081569, 37.25047102625463 ], [ -93.390850398365458, 37.250231569384532 ], [ -93.390684368792748, 37.250334941569356 ], [ -93.390924371937459, 37.250566547088859 ], [ -93.391083826081569, 37.25047102625463 ] ] ] } },
{ "type": "Feature", "properties": { "fillColor": "#7d7d7d" }, "geometry": { "type": "Polygon", "coordinates": [ [ [ -93.390039976787747, 37.249863877299255 ], [ -93.389919975215392, 37.249739568181297 ], [ -93.38931832349644, 37.250115111943131 ], [ -93.38944818821173, 37.250247271497692 ], [ -93.390039976787747, 37.249863877299255 ] ] ] } },
{ "type": "Feature", "properties": { "fillColor": "#7d7d7d" }, "geometry": { "type": "Polygon", "coordinates": [ [ [ -93.390268472932405, 37.249715687722002 ], [ -93.390107374931134, 37.249822986164666 ], [ -93.389974222501522, 37.249701294016852 ], [ -93.390146827502861, 37.249591378359554 ], [ -93.390268472932405, 37.249715687722002 ] ] ] } },
{ "type": "Feature", "properties": { "fillColor": "#7d7d7d" }, "geometry": { "type": "Polygon", "coordinates": [ [ [ -93.388129814772952, 37.248732493200556 ], [ -93.387677754055161, 37.248260110368484 ], [ -93.388366530203356, 37.247829598227618 ], [ -93.388833385635564, 37.248299366672349 ], [ -93.388568724633515, 37.248457700223632 ], [ -93.388703520920245, 37.248595096837363 ], [ -93.388532559776067, 37.248702396875764 ], [ -93.388392831917855, 37.248567617534661 ], [ -93.388129814772952, 37.248732493200556 ] ] ] } },
{ "type": "Feature", "properties": { "fillColor": "#7d7d7d" }, "geometry": { "type": "Polygon", "coordinates": [ [ [ -93.385202105178806, 37.249857498283717 ], [ -93.385458546895094, 37.249932083662365 ], [ -93.384771414604018, 37.251287038520687 ], [ -93.384521548316386, 37.251212454483323 ], [ -93.385202105178806, 37.249857498283717 ] ] ] } },
{ "type": "Feature", "properties": { "fillColor": "#7d7d7d" }, "geometry": { "type": "Polygon", "coordinates": [ [ [ -93.3840620902414, 37.252223912420973 ], [ -93.384124556813305, 37.252243539542924 ], [ -93.384081816527257, 37.252327281872354 ], [ -93.38457661753111, 37.252490840841119 ], [ -93.384606206959901, 37.252416257995407 ], [ -93.384831415390209, 37.252484298489179 ], [ -93.384505931673402, 37.253151288345272 ], [ -93.383782634524934, 37.252923616159713 ], [ -93.383733318810243, 37.253003432349061 ], [ -93.383680715381274, 37.252987730810297 ], [ -93.3840620902414, 37.252223912420973 ] ] ] } }
]
}
