{
"type": "FeatureCollection",
"name": "SGF_rampsnew",
"crs": { "type": "name", "properties": { "name": "urn:ogc:def:crs:OGC:1.3:CRS84" } },
"features": [
{ "type": "Feature", "properties": { "fillColor": "#636363" }, "geometry": { "type": "Polygon", "coordinates": [ [ [ -93.3782294296863, 37.252840741075211 ], [ -93.378272724689566, 37.252753208535118 ], [ -93.37763931879185, 37.252548506056165 ], [ -93.377618537190273, 37.252537133679908 ], [ -93.37760165213902, 37.252519902803527 ], [ -93.37759039543819, 37.252497761121603 ], [ -93.377586065937891, 37.252486044119976 ], [ -93.378053651973033, 37.251573835487974 ], [ -93.37814673623005, 37.251381191602782 ], [ -93.378166651931537, 37.251354311021508 ], [ -93.378180939282615, 37.251339492235417 ], [ -93.378208215134649, 37.251327430430628 ], [ -93.378240686387116, 37.251324673446412 ], [ -93.378287877940664, 37.251335012136714 ], [ -93.378994019443809, 37.251555570525376 ], [ -93.379109184152526, 37.251598992882066 ], [ -93.379174126657432, 37.251465968757849 ], [ -93.379078011750181, 37.251428060285662 ], [ -93.379049437048025, 37.251416343117668 ], [ -93.379032119046741, 37.251404625947856 ], [ -93.379018264645694, 37.251392219530771 ], [ -93.379002678444522, 37.251375677638158 ], [ -93.378993153543789, 37.251348107809058 ], [ -93.378992287643712, 37.251321916462082 ], [ -93.378994019443866, 37.251282629424523 ], [ -93.379005276144724, 37.251244720860093 ], [ -93.379365490571729, 37.250540307338319 ], [ -93.379524816183746, 37.250256334466947 ], [ -93.379603613089628, 37.250118138544117 ], [ -93.37977852490279, 37.249938931483634 ], [ -93.380029635921716, 37.249967880345366 ], [ -93.380119689528485, 37.249774887723888 ], [ -93.379916203013181, 37.249660125805683 ], [ -93.379950839015777, 37.249409234276627 ], [ -93.379933521014493, 37.249405443326779 ], [ -93.37997335241748, 37.249319974588865 ], [ -93.379852126408352, 37.249275861653942 ], [ -93.380591605064012, 37.247796684853306 ], [ -93.380619313866106, 37.247751192469103 ], [ -93.380657413468967, 37.247724999871792 ], [ -93.380709367472875, 37.247707078615754 ], [ -93.38078037127822, 37.247701564382275 ], [ -93.380795957479393, 37.247709835732351 ], [ -93.380853106883663, 37.247594036748687 ], [ -93.380818470881067, 37.247576115461491 ], [ -93.380789030278834, 37.247554058486806 ], [ -93.380768248677285, 37.247504430270155 ], [ -93.380761321476783, 37.24746031627236 ], [ -93.380787298478737, 37.247383116714055 ], [ -93.381215053110907, 37.246547702149478 ], [ -93.381241030112875, 37.246507723332492 ], [ -93.381272202515206, 37.246473258818064 ], [ -93.381315497518486, 37.246459473007882 ], [ -93.381362256121974, 37.246455337264329 ], [ -93.381426332726804, 37.246460851589006 ], [ -93.381528508934508, 37.246487044625724 ], [ -93.381589121939058, 37.246380893841689 ], [ -93.381488677531507, 37.24634918643563 ], [ -93.381457505129177, 37.246336779186151 ], [ -93.381434991727474, 37.246316100432473 ], [ -93.38140901472552, 37.246276121492635 ], [ -93.381389964924054, 37.246229249605094 ], [ -93.381389964924054, 37.246193406377316 ], [ -93.381414210125897, 37.246141020090668 ], [ -93.38230348949277, 37.244376752764012 ], [ -93.382332930094989, 37.244320229353789 ], [ -93.382374493298116, 37.244288521080705 ], [ -93.382416056501228, 37.244270599007415 ], [ -93.382459351504508, 37.244265084522461 ], [ -93.382521696309198, 37.244269220386215 ], [ -93.382684485521438, 37.244329879695123 ], [ -93.382836883932882, 37.244018310908025 ], [ -93.3831529374567, 37.243907331449293 ], [ -93.384050009924152, 37.242110268645931 ], [ -93.384188553934564, 37.242154385775564 ], [ -93.384259557739909, 37.24217092969252 ], [ -93.384339220545925, 37.24217092969252 ], [ -93.384363465747725, 37.242157143095298 ], [ -93.384387710949568, 37.242118540609709 ], [ -93.384403297150754, 37.242088210071437 ], [ -93.384502009758179, 37.241869002636527 ], [ -93.384533182160524, 37.24174630134118 ], [ -93.384550500161808, 37.2416235998461 ], [ -93.384521059559589, 37.24148435408722 ], [ -93.384498546157914, 37.241420245804811 ], [ -93.384470837355806, 37.241376128245456 ], [ -93.384387710949568, 37.241249290118482 ], [ -93.384363465747725, 37.241235503352691 ], [ -93.384309779943692, 37.241232745999227 ], [ -93.384276875741236, 37.241246532765537 ], [ -93.384254362339533, 37.241257562176763 ], [ -93.384237044338249, 37.241278242318437 ], [ -93.38423011713769, 37.241318223909623 ], [ -93.384010178521166, 37.241096256876816 ], [ -93.381938079665275, 37.239006494830591 ], [ -93.381915566263586, 37.2390230394385 ], [ -93.38183936705785, 37.23914436645218 ], [ -93.381802999255115, 37.239268450696002 ], [ -93.381797803854738, 37.239349794700537 ], [ -93.381809926455631, 37.239475257315085 ], [ -93.38187746666074, 37.239636566084101 ], [ -93.381979642868416, 37.239767543035761 ], [ -93.382235083387684, 37.240021913412718 ], [ -93.382250669588828, 37.240039147147037 ], [ -93.381907773163036, 37.240260427945664 ], [ -93.381406849975335, 37.240562016773147 ], [ -93.381566175587295, 37.240733663361262 ], [ -93.381979209918399, 37.24048343145779 ], [ -93.38246454690487, 37.240958733495923 ], [ -93.382577113913356, 37.241208274482837 ], [ -93.382670631120391, 37.241176564900485 ], [ -93.382907021838207, 37.241647381893038 ], [ -93.382874117635751, 37.241724587327077 ], [ -93.382783198128905, 37.241751126676782 ], [ -93.383057688449568, 37.241852458653291 ], [ -93.383168523657901, 37.241655309240365 ], [ -93.383184109859073, 37.241644969221944 ], [ -93.383202293760419, 37.24163738654088 ], [ -93.383217014061529, 37.24163738654088 ], [ -93.383238661563169, 37.241641522548825 ], [ -93.383286286066763, 37.24166082391627 ], [ -93.383296676867545, 37.241671853266865 ], [ -93.383297542767608, 37.241684950618598 ], [ -93.383297542767608, 37.241700805304511 ], [ -93.383058987299648, 37.242111130308864 ], [ -93.382913516088706, 37.242369628744669 ], [ -93.382892734487143, 37.242386172614367 ], [ -93.382880611886208, 37.242391687236783 ], [ -93.382863293884938, 37.242391687236783 ], [ -93.382788826479313, 37.242368250088688 ], [ -93.382461516254708, 37.242941424135061 ], [ -93.382432075652488, 37.242957967879263 ], [ -93.382406098650534, 37.242960725169596 ], [ -93.382378389848469, 37.242952453298258 ], [ -93.382284872641407, 37.242911093927951 ], [ -93.382283140841267, 37.242871113181742 ], [ -93.382130742429823, 37.242804938106921 ], [ -93.3820147118211, 37.243029657395461 ], [ -93.382120351629027, 37.243066880771217 ], [ -93.381933317214973, 37.24342670578892 ], [ -93.381281294465921, 37.243230939134122 ], [ -93.381269171865, 37.24325851193317 ], [ -93.381191240859124, 37.243229560493901 ], [ -93.38011925657851, 37.242912472573991 ], [ -93.37994607656546, 37.24325851193317 ], [ -93.381770528002761, 37.243853047958844 ], [ -93.381587823088978, 37.244239752352037 ], [ -93.381057892249089, 37.244078453434589 ], [ -93.380900298437254, 37.244405186780547 ], [ -93.381428497477003, 37.244584407001618 ], [ -93.381300344267359, 37.244838761122146 ], [ -93.38078340192844, 37.244681599327883 ], [ -93.380738375125091, 37.244772587775039 ], [ -93.380263861889418, 37.244622318916832 ], [ -93.380542681710381, 37.244072938935588 ], [ -93.38033659749486, 37.24400814354204 ], [ -93.379962528666724, 37.24474639414241 ], [ -93.379694099646514, 37.244662298734063 ], [ -93.379621364041071, 37.244815324735036 ], [ -93.380367769897234, 37.24505795991945 ], [ -93.380298497892014, 37.245197199075911 ], [ -93.379441256827491, 37.244925613552056 ], [ -93.379358130421252, 37.245111725564811 ], [ -93.380206712485119, 37.24538503366896 ], [ -93.380125317878978, 37.245547708387782 ], [ -93.379269808614623, 37.245273366921452 ], [ -93.37920400020964, 37.245371247659719 ], [ -93.379200536609375, 37.245396062474555 ], [ -93.379207463809905, 37.245420877281255 ], [ -93.379217854610701, 37.245437420481146 ], [ -93.379894988461658, 37.24566351051601 ], [ -93.379929624464253, 37.245677296471804 ], [ -93.379976383067756, 37.245681432258053 ], [ -93.380026605271539, 37.245681432258053 ], [ -93.380045655073005, 37.245638695789225 ], [ -93.38031235229306, 37.245660753324543 ], [ -93.380329670294344, 37.245606988070897 ], [ -93.380364306296954, 37.245618016843984 ], [ -93.380584244913507, 37.245181000474403 ], [ -93.380705470922635, 37.245214086975906 ], [ -93.380467348404679, 37.245710727404138 ], [ -93.380637064817449, 37.24576035680208 ], [ -93.380870857835049, 37.245283361791408 ], [ -93.380985156643661, 37.245317826850012 ], [ -93.380773877027764, 37.245746570861499 ], [ -93.380834490032299, 37.245772764146473 ], [ -93.38080678123022, 37.245838936615357 ], [ -93.380785999628657, 37.245866508460239 ], [ -93.380763486226954, 37.245877537195369 ], [ -93.380730582024498, 37.245881672970611 ], [ -93.380694214221762, 37.245878915787145 ], [ -93.380088084176151, 37.245688669883435 ], [ -93.380044789172885, 37.245790685862538 ], [ -93.380716727623451, 37.246009881891013 ], [ -93.380680359820715, 37.246094665089508 ], [ -93.379928758564176, 37.245860304796018 ], [ -93.379902781562194, 37.245901662547823 ], [ -93.379627425341511, 37.245803782498491 ], [ -93.379454245328461, 37.246138779886785 ], [ -93.379405754924818, 37.246232523745235 ], [ -93.379275869915034, 37.246481357980358 ], [ -93.379384973323269, 37.246517201071171 ], [ -93.379133862304371, 37.247032788260398 ], [ -93.379099226301776, 37.247078281078316 ], [ -93.379069785699556, 37.247085173927111 ], [ -93.379040345097351, 37.247086552496803 ], [ -93.378986659293275, 37.247074145368735 ], [ -93.378981463892885, 37.247071388228882 ], [ -93.378867165084287, 37.247288512683184 ], [ -93.379059394898761, 37.247353305256311 ], [ -93.378981463892885, 37.247496675858329 ], [ -93.378783172777972, 37.247436363739268 ], [ -93.378466253354119, 37.248084285692066 ], [ -93.378774513777358, 37.248185609153296 ], [ -93.378809149779954, 37.248130467150474 ], [ -93.378990988793632, 37.248192501900803 ], [ -93.379184950408231, 37.247827185413698 ], [ -93.379145119005216, 37.24781994799369 ], [ -93.379371984822299, 37.247374673007556 ], [ -93.379215256910499, 37.247340898172148 ], [ -93.379222184111015, 37.247311948301167 ], [ -93.37925335651336, 37.247289891249153 ], [ -93.379291456116221, 37.247267834190687 ], [ -93.379341678320003, 37.247252669959238 ], [ -93.379381509723018, 37.247252669959238 ], [ -93.379857754758845, 37.247398797880727 ], [ -93.379906245162488, 37.247433261971842 ], [ -93.379933953964553, 37.247489783047172 ], [ -93.379946076565503, 37.247527004219961 ], [ -93.379939149364944, 37.247558711130431 ], [ -93.379809264355202, 37.247520111411568 ], [ -93.379589325738635, 37.247952289278018 ], [ -93.379558153336305, 37.247942639400556 ], [ -93.379358996321315, 37.248353447376026 ], [ -93.37951832193329, 37.24840238576072 ], [ -93.379483685930694, 37.248489234083486 ], [ -93.379386705123409, 37.248489234083486 ], [ -93.379307042317407, 37.248656037724231 ], [ -93.378990988793632, 37.24856539860162 ], [ -93.378696582771482, 37.249209175254045 ], [ -93.378982329792962, 37.249302226028291 ], [ -93.37901523399546, 37.249318768376128 ], [ -93.379029088396507, 37.249342203362666 ], [ -93.379034283796884, 37.249373909509352 ], [ -93.378966743591789, 37.249507626589846 ], [ -93.378942498389989, 37.24952554741764 ], [ -93.3789043987871, 37.249531061517644 ], [ -93.378861103783876, 37.249529682992687 ], [ -93.378797027179019, 37.249528304467695 ], [ -93.378315586742829, 37.249375977301071 ], [ -93.37822899673634, 37.249513829953813 ], [ -93.378041962322243, 37.249447660711972 ], [ -93.378132015929012, 37.2492408814567 ], [ -93.377837609906862, 37.249158169595717 ], [ -93.377696035246245, 37.249412508278603 ], [ -93.377372188621877, 37.249309118673672 ], [ -93.377349675220174, 37.24935736717363 ], [ -93.377349675220174, 37.249385626994972 ], [ -93.37736526142136, 37.249411129751479 ], [ -93.377392104323377, 37.24943180765581 ], [ -93.37744059472702, 37.249443525132421 ], [ -93.377647544842588, 37.249509694377878 ], [ -93.377561820736148, 37.249691659503306 ], [ -93.377344912769786, 37.250132095999192 ], [ -93.377154414755466, 37.250491887282408 ], [ -93.37697257574176, 37.250885450109365 ], [ -93.377874843609646, 37.251180448568654 ], [ -93.37806274392382, 37.251269361429159 ], [ -93.378090452725885, 37.251305202242477 ], [ -93.377967494916618, 37.251589171160724 ], [ -93.377837609906862, 37.251820067429115 ], [ -93.377756215300721, 37.251796633213246 ], [ -93.377477395479758, 37.252356295435973 ], [ -93.377520690483024, 37.252370080167331 ], [ -93.377465272878823, 37.252487594899698 ], [ -93.377189916658139, 37.252403508130371 ], [ -93.37716047605592, 37.252382831041579 ], [ -93.377155280655529, 37.252360775473939 ], [ -93.377158744255794, 37.252338719899846 ], [ -93.377221089060455, 37.2522119002235 ], [ -93.377300751866471, 37.252244983637901 ], [ -93.37756225368615, 37.25173081059733 ], [ -93.377480859080038, 37.251702896276875 ], [ -93.377517226882745, 37.25162570106523 ], [ -93.37735963307091, 37.251566426116902 ], [ -93.37703059104615, 37.252232232740305 ], [ -93.377111985652277, 37.252262559195898 ], [ -93.377111985652277, 37.252290128690376 ], [ -93.377091204050714, 37.252317698174771 ], [ -93.377066958848872, 37.252334239860559 ], [ -93.377044445447169, 37.252343889175606 ], [ -93.377016736645089, 37.252345267649069 ], [ -93.376748307624879, 37.252266694620708 ], [ -93.37673272142375, 37.252251531395267 ], [ -93.37671800112264, 37.252235678929061 ], [ -93.376711073922124, 37.25221913722163 ], [ -93.376730123723533, 37.25217985065192 ], [ -93.376769089226499, 37.25210127745104 ], [ -93.376861740533471, 37.252131603959334 ], [ -93.377179525857343, 37.251512148143647 ], [ -93.377019334345306, 37.251457008575237 ], [ -93.376834031731349, 37.251823341326343 ], [ -93.376738782724203, 37.251792325452186 ], [ -93.376587250212779, 37.252096969707402 ], [ -93.376658254018125, 37.252123160784969 ], [ -93.376646131417218, 37.252150041091923 ], [ -93.376639204216701, 37.252168650529597 ], [ -93.376622752115452, 37.252190016915343 ], [ -93.376601970513889, 37.252198977010778 ], [ -93.37658118891234, 37.252206558629169 ], [ -93.376562139110902, 37.252205869391162 ], [ -93.376198894033536, 37.252081117208668 ], [ -93.376152135430033, 37.252172096721267 ], [ -93.376884686885177, 37.252414535908741 ], [ -93.3782294296863, 37.252840741075211 ] ] ] } },
{ "type": "Feature", "properties": { "fillColor": "#636363" }, "geometry": { "type": "Polygon", "coordinates": [ [ [ -93.394475798480556, 37.241064719582859 ], [ -93.396746188451971, 37.241765085682367 ], [ -93.39773418042661, 37.239784259814719 ], [ -93.398161935058866, 37.239930574555231 ], [ -93.39822947526396, 37.239812006212546 ], [ -93.39693928416655, 37.239434240714196 ], [ -93.396870012161315, 37.239580383795769 ], [ -93.396722809150191, 37.239539022575009 ], [ -93.396159974107704, 37.239354275511879 ], [ -93.396172962608716, 37.239315326912802 ], [ -93.39582313898228, 37.239206408599664 ], [ -93.395885483786984, 37.239061643509508 ], [ -93.395094051127217, 37.238809337973535 ], [ -93.394995338519792, 37.239003737395599 ], [ -93.395447338353904, 37.2391319580166 ], [ -93.394475798480556, 37.241064719582859 ] ] ] } },
{ "type": "Feature", "properties": { "fillColor": "#636363" }, "geometry": { "type": "Polygon", "coordinates": [ [ [ -93.391325062119122, 37.24927397964268 ], [ -93.391226019725494, 37.249340387317872 ], [ -93.391149991332028, 37.249386185680436 ], [ -93.391094922117333, 37.249415627470249 ], [ -93.391053003759851, 37.249427077052069 ], [ -93.391015195045284, 37.249428058444721 ], [ -93.3909703999378, 37.249420861565007 ], [ -93.390931769294653, 37.249399598052769 ], [ -93.390835192686751, 37.249310945498657 ], [ -93.390648614899575, 37.249118591996684 ], [ -93.390596833399158, 37.249063633763086 ], [ -93.39057217554182, 37.249038117426714 ], [ -93.390562312398885, 37.249004749896869 ], [ -93.390563134327493, 37.248973345149423 ], [ -93.390568887827541, 37.248945211718706 ], [ -93.390583682541916, 37.248917732543696 ], [ -93.390598477256347, 37.248897450289029 ], [ -93.390665875399719, 37.248852305896143 ], [ -93.389342570389417, 37.24749534441905 ], [ -93.38952257274795, 37.24737070425379 ], [ -93.389322844103546, 37.247183580049061 ], [ -93.389140375959286, 37.247292844938343 ], [ -93.388385023596271, 37.24652978667531 ], [ -93.387623917733251, 37.247012648879021 ], [ -93.388278172881158, 37.247670527294922 ], [ -93.388082553879656, 37.247785679962547 ], [ -93.388220637880707, 37.247921769251967 ], [ -93.388370228881897, 37.247827553616233 ], [ -93.388741740599059, 37.248188058640942 ], [ -93.388725302027524, 37.248194601365938 ], [ -93.38887160531435, 37.248339849714306 ], [ -93.389167499602365, 37.248163196280821 ], [ -93.38945517460462, 37.248444533035027 ], [ -93.390163677038657, 37.249162264135876 ], [ -93.390234362896365, 37.249123008281572 ], [ -93.390286144396782, 37.24910452530974 ], [ -93.390329706611382, 37.249102562516022 ], [ -93.390351076754413, 37.24910059972224 ], [ -93.390390529326154, 37.249106488103429 ], [ -93.390424228397833, 37.249130695887985 ], [ -93.390720122685849, 37.249424460004938 ], [ -93.390759575257604, 37.249477618756728 ], [ -93.390757931400444, 37.249505751988671 ], [ -93.390750534043235, 37.249552858772091 ], [ -93.390718478828703, 37.249585571798818 ], [ -93.390688889399897, 37.249599965526066 ], [ -93.390598477256347, 37.249511640338213 ], [ -93.389315035782104, 37.250324064597713 ], [ -93.389707506678008, 37.250723812719052 ], [ -93.389395173818428, 37.2509344810884 ], [ -93.389847234536219, 37.251390163915715 ], [ -93.391213279832527, 37.250536696841188 ], [ -93.391714656265023, 37.251031309830744 ], [ -93.390353542540169, 37.251901127311491 ], [ -93.390189156824604, 37.251736258579108 ], [ -93.390037921966254, 37.251830469327501 ], [ -93.390836836543926, 37.252633545751344 ], [ -93.392977960489105, 37.251279269353617 ], [ -93.391417118119861, 37.249686164266997 ], [ -93.391353007690782, 37.249620574721682 ], [ -93.391347254190748, 37.249604872477917 ], [ -93.391350541905027, 37.249581973366574 ], [ -93.391381775191007, 37.249523744166375 ], [ -93.391425337405622, 37.249475328842053 ], [ -93.391482872406087, 37.249442615767464 ], [ -93.39148739301325, 37.249437299891497 ], [ -93.391327527904892, 37.249270626544231 ], [ -93.391325062119122, 37.24927397964268 ] ] ] } },
{ "type": "Feature", "properties": { "fillColor": "#636363" }, "geometry": { "type": "Polygon", "coordinates": [ [ [ -93.38445958065509, 37.248787946746859 ], [ -93.382270585290414, 37.2531498610822 ], [ -93.382336393695368, 37.253153996458302 ], [ -93.382384884099025, 37.253165024126837 ], [ -93.382660240319751, 37.253249110046234 ], [ -93.383298408667741, 37.253449330648657 ], [ -93.383583289789186, 37.252880027300293 ], [ -93.383725297399877, 37.252925516587958 ], [ -93.384053473524546, 37.252270054653216 ], [ -93.383915795414168, 37.252216983353208 ], [ -93.384291596042459, 37.251440897474971 ], [ -93.384393772250121, 37.251472602738517 ], [ -93.384866553685725, 37.250540048868331 ], [ -93.385198193410645, 37.249860442103234 ], [ -93.384924568990073, 37.249762567195994 ], [ -93.385258806415237, 37.249074682218932 ], [ -93.38445958065509, 37.248787946746859 ] ] ] } }
]
}
