{
"type": "FeatureCollection",
"name": "SGF_Taxiways",
"crs": { "type": "name", "properties": { "name": "urn:ogc:def:crs:OGC:1.3:CRS84" } },
"features": [
{ "type": "Feature", "properties": { "zIndex": 5 }, "geometry": { "type": "Polygon", "coordinates": [ [ [ -93.400310530773254, 37.255373023769515 ], [ -93.386613723542325, 37.241471084366729 ], [ -93.380547660635727, 37.253589846597492 ], [ -93.380061890699196, 37.253436838415368 ], [ -93.386241386514314, 37.241087812466084 ], [ -93.383352743896964, 37.238156683055657 ], [ -93.383767077078147, 37.237892999904325 ], [ -93.386463706356139, 37.240638533975329 ], [ -93.388990835696262, 37.235577374131282 ], [ -93.389475739732731, 37.235733865521055 ], [ -93.386835177484059, 37.241019050799281 ], [ -93.400727245179368, 37.255113536121712 ], [ -93.400310530773254, 37.255373023769515 ] ] ] } },
{ "type": "Feature", "properties": { "zIndex": null }, "geometry": { "type": "Polygon", "coordinates": [ [ [ -93.401408275580451, 37.252920002736417 ], [ -93.402486321161561, 37.25400691292996 ], [ -93.402825753987102, 37.253794632399583 ], [ -93.401757233306711, 37.252711509927131 ], [ -93.401408275580451, 37.252920002736417 ] ] ] } },
{ "type": "Feature", "properties": { "zIndex": null }, "geometry": { "type": "Polygon", "coordinates": [ [ [ -93.398820533235735, 37.256318871076544 ], [ -93.397739889954451, 37.255226135950899 ], [ -93.397402188929036, 37.255448061365058 ], [ -93.398475039109726, 37.256532867490115 ], [ -93.398820533235735, 37.256318871076544 ] ] ] } },
{ "type": "Feature", "properties": { "zIndex": null }, "geometry": { "type": "Polygon", "coordinates": [ [ [ -93.38445958065509, 37.248787946746859 ], [ -93.382270585290414, 37.2531498610822 ], [ -93.382336393695368, 37.253153996458302 ], [ -93.382384884099025, 37.253165024126837 ], [ -93.382660240319751, 37.253249110046234 ], [ -93.383298408667741, 37.253449330648657 ], [ -93.383583289789186, 37.252880027300293 ], [ -93.383725297399877, 37.252925516587958 ], [ -93.384053473524546, 37.252270054653216 ], [ -93.383915795414168, 37.252216983353208 ], [ -93.384291596042459, 37.251440897474971 ], [ -93.384393772250121, 37.251472602738517 ], [ -93.384866553685725, 37.250540048868331 ], [ -93.385198193410645, 37.249860442103234 ], [ -93.384924568990073, 37.249762567195994 ], [ -93.385258806415237, 37.249074682218932 ], [ -93.38445958065509, 37.248787946746859 ] ] ] } },
{ "type": "Feature", "properties": { "zIndex": null }, "geometry": { "type": "Polygon", "coordinates": [ [ [ -93.3782294296863, 37.252840741075211 ], [ -93.378272724689566, 37.252753208535118 ], [ -93.37763931879185, 37.252548506056165 ], [ -93.377618537190273, 37.252537133679908 ], [ -93.37760165213902, 37.252519902803527 ], [ -93.37759039543819, 37.252497761121603 ], [ -93.377586065937891, 37.252486044119976 ], [ -93.378053651973033, 37.251573835487974 ], [ -93.37814673623005, 37.251381191602782 ], [ -93.378166651931537, 37.251354311021508 ], [ -93.378180939282615, 37.251339492235417 ], [ -93.378208215134649, 37.251327430430628 ], [ -93.378240686387116, 37.251324673446412 ], [ -93.378287877940664, 37.251335012136714 ], [ -93.378994019443809, 37.251555570525376 ], [ -93.379109184152526, 37.251598992882066 ], [ -93.379174126657432, 37.251465968757849 ], [ -93.379078011750181, 37.251428060285662 ], [ -93.379049437048025, 37.251416343117668 ], [ -93.379032119046741, 37.251404625947856 ], [ -93.379018264645694, 37.251392219530771 ], [ -93.379002678444522, 37.251375677638158 ], [ -93.378993153543789, 37.251348107809058 ], [ -93.378992287643712, 37.251321916462082 ], [ -93.378994019443866, 37.251282629424523 ], [ -93.379005276144724, 37.251244720860093 ], [ -93.379365490571729, 37.250540307338319 ], [ -93.379524816183746, 37.250256334466947 ], [ -93.379603613089628, 37.250118138544117 ], [ -93.37977852490279, 37.249938931483634 ], [ -93.380029635921716, 37.249967880345366 ], [ -93.380119689528485, 37.249774887723888 ], [ -93.379916203013181, 37.249660125805683 ], [ -93.379950839015777, 37.249409234276627 ], [ -93.379933521014493, 37.249405443326779 ], [ -93.37997335241748, 37.249319974588865 ], [ -93.379852126408352, 37.249275861653942 ], [ -93.380591605064012, 37.247796684853306 ], [ -93.380619313866106, 37.247751192469103 ], [ -93.380657413468967, 37.247724999871792 ], [ -93.380709367472875, 37.247707078615754 ], [ -93.38078037127822, 37.247701564382275 ], [ -93.380795957479393, 37.247709835732351 ], [ -93.380853106883663, 37.247594036748687 ], [ -93.380818470881067, 37.247576115461491 ], [ -93.380789030278834, 37.247554058486806 ], [ -93.380768248677285, 37.247504430270155 ], [ -93.380761321476783, 37.24746031627236 ], [ -93.380787298478737, 37.247383116714055 ], [ -93.381215053110907, 37.246547702149478 ], [ -93.381241030112875, 37.246507723332492 ], [ -93.381272202515206, 37.246473258818064 ], [ -93.381315497518486, 37.246459473007882 ], [ -93.381362256121974, 37.246455337264329 ], [ -93.381426332726804, 37.246460851589006 ], [ -93.381528508934508, 37.246487044625724 ], [ -93.381589121939058, 37.246380893841689 ], [ -93.381488677531507, 37.24634918643563 ], [ -93.381457505129177, 37.246336779186151 ], [ -93.381434991727474, 37.246316100432473 ], [ -93.38140901472552, 37.246276121492635 ], [ -93.381389964924054, 37.246229249605094 ], [ -93.381389964924054, 37.246193406377316 ], [ -93.381414210125897, 37.246141020090668 ], [ -93.38230348949277, 37.244376752764012 ], [ -93.382332930094989, 37.244320229353789 ], [ -93.382374493298116, 37.244288521080705 ], [ -93.382416056501228, 37.244270599007415 ], [ -93.382459351504508, 37.244265084522461 ], [ -93.382521696309198, 37.244269220386215 ], [ -93.382684485521438, 37.244329879695123 ], [ -93.382836883932882, 37.244018310908025 ], [ -93.3831529374567, 37.243907331449293 ], [ -93.384050009924152, 37.242110268645931 ], [ -93.384188553934564, 37.242154385775564 ], [ -93.384259557739909, 37.24217092969252 ], [ -93.384339220545925, 37.24217092969252 ], [ -93.384363465747725, 37.242157143095298 ], [ -93.384387710949568, 37.242118540609709 ], [ -93.384403297150754, 37.242088210071437 ], [ -93.384502009758179, 37.241869002636527 ], [ -93.384533182160524, 37.24174630134118 ], [ -93.384550500161808, 37.2416235998461 ], [ -93.384521059559589, 37.24148435408722 ], [ -93.384498546157914, 37.241420245804811 ], [ -93.384470837355806, 37.241376128245456 ], [ -93.384387710949568, 37.241249290118482 ], [ -93.384363465747725, 37.241235503352691 ], [ -93.384309779943692, 37.241232745999227 ], [ -93.384276875741236, 37.241246532765537 ], [ -93.384254362339533, 37.241257562176763 ], [ -93.384237044338249, 37.241278242318437 ], [ -93.38423011713769, 37.241318223909623 ], [ -93.384010178521166, 37.241096256876816 ], [ -93.381938079665275, 37.239006494830591 ], [ -93.381915566263586, 37.2390230394385 ], [ -93.38183936705785, 37.23914436645218 ], [ -93.381802999255115, 37.239268450696002 ], [ -93.381797803854738, 37.239349794700537 ], [ -93.381809926455631, 37.239475257315085 ], [ -93.38187746666074, 37.239636566084101 ], [ -93.381979642868416, 37.239767543035761 ], [ -93.382235083387684, 37.240021913412718 ], [ -93.382250669588828, 37.240039147147037 ], [ -93.381907773163036, 37.240260427945664 ], [ -93.381406849975335, 37.240562016773147 ], [ -93.381566175587295, 37.240733663361262 ], [ -93.381979209918399, 37.24048343145779 ], [ -93.38246454690487, 37.240958733495923 ], [ -93.382577113913356, 37.241208274482837 ], [ -93.382670631120391, 37.241176564900485 ], [ -93.382907021838207, 37.241647381893038 ], [ -93.382874117635751, 37.241724587327077 ], [ -93.382783198128905, 37.241751126676782 ], [ -93.383057688449568, 37.241852458653291 ], [ -93.383168523657901, 37.241655309240365 ], [ -93.383184109859073, 37.241644969221944 ], [ -93.383202293760419, 37.24163738654088 ], [ -93.383217014061529, 37.24163738654088 ], [ -93.383238661563169, 37.241641522548825 ], [ -93.383286286066763, 37.24166082391627 ], [ -93.383296676867545, 37.241671853266865 ], [ -93.383297542767608, 37.241684950618598 ], [ -93.383297542767608, 37.241700805304511 ], [ -93.383058987299648, 37.242111130308864 ], [ -93.382913516088706, 37.242369628744669 ], [ -93.382892734487143, 37.242386172614367 ], [ -93.382880611886208, 37.242391687236783 ], [ -93.382863293884938, 37.242391687236783 ], [ -93.382788826479313, 37.242368250088688 ], [ -93.382461516254708, 37.242941424135061 ], [ -93.382432075652488, 37.242957967879263 ], [ -93.382406098650534, 37.242960725169596 ], [ -93.382378389848469, 37.242952453298258 ], [ -93.382284872641407, 37.242911093927951 ], [ -93.382283140841267, 37.242871113181742 ], [ -93.382130742429823, 37.242804938106921 ], [ -93.3820147118211, 37.243029657395461 ], [ -93.382120351629027, 37.243066880771217 ], [ -93.381933317214973, 37.24342670578892 ], [ -93.381281294465921, 37.243230939134122 ], [ -93.381269171865, 37.24325851193317 ], [ -93.381191240859124, 37.243229560493901 ], [ -93.38011925657851, 37.242912472573991 ], [ -93.37994607656546, 37.24325851193317 ], [ -93.381770528002761, 37.243853047958844 ], [ -93.381587823088978, 37.244239752352037 ], [ -93.381057892249089, 37.244078453434589 ], [ -93.380900298437254, 37.244405186780547 ], [ -93.381428497477003, 37.244584407001618 ], [ -93.381300344267359, 37.244838761122146 ], [ -93.38078340192844, 37.244681599327883 ], [ -93.380738375125091, 37.244772587775039 ], [ -93.380263861889418, 37.244622318916832 ], [ -93.380542681710381, 37.244072938935588 ], [ -93.38033659749486, 37.24400814354204 ], [ -93.379962528666724, 37.24474639414241 ], [ -93.379694099646514, 37.244662298734063 ], [ -93.379621364041071, 37.244815324735036 ], [ -93.380367769897234, 37.24505795991945 ], [ -93.380298497892014, 37.245197199075911 ], [ -93.379441256827491, 37.244925613552056 ], [ -93.379358130421252, 37.245111725564811 ], [ -93.380206712485119, 37.24538503366896 ], [ -93.380125317878978, 37.245547708387782 ], [ -93.379269808614623, 37.245273366921452 ], [ -93.37920400020964, 37.245371247659719 ], [ -93.379200536609375, 37.245396062474555 ], [ -93.379207463809905, 37.245420877281255 ], [ -93.379217854610701, 37.245437420481146 ], [ -93.379894988461658, 37.24566351051601 ], [ -93.379929624464253, 37.245677296471804 ], [ -93.379976383067756, 37.245681432258053 ], [ -93.380026605271539, 37.245681432258053 ], [ -93.380045655073005, 37.245638695789225 ], [ -93.38031235229306, 37.245660753324543 ], [ -93.380329670294344, 37.245606988070897 ], [ -93.380364306296954, 37.245618016843984 ], [ -93.380584244913507, 37.245181000474403 ], [ -93.380705470922635, 37.245214086975906 ], [ -93.380467348404679, 37.245710727404138 ], [ -93.380637064817449, 37.24576035680208 ], [ -93.380870857835049, 37.245283361791408 ], [ -93.380985156643661, 37.245317826850012 ], [ -93.380773877027764, 37.245746570861499 ], [ -93.380834490032299, 37.245772764146473 ], [ -93.38080678123022, 37.245838936615357 ], [ -93.380785999628657, 37.245866508460239 ], [ -93.380763486226954, 37.245877537195369 ], [ -93.380730582024498, 37.245881672970611 ], [ -93.380694214221762, 37.245878915787145 ], [ -93.380088084176151, 37.245688669883435 ], [ -93.380044789172885, 37.245790685862538 ], [ -93.380716727623451, 37.246009881891013 ], [ -93.380680359820715, 37.246094665089508 ], [ -93.379928758564176, 37.245860304796018 ], [ -93.379902781562194, 37.245901662547823 ], [ -93.379627425341511, 37.245803782498491 ], [ -93.379454245328461, 37.246138779886785 ], [ -93.379405754924818, 37.246232523745235 ], [ -93.379275869915034, 37.246481357980358 ], [ -93.379384973323269, 37.246517201071171 ], [ -93.379133862304371, 37.247032788260398 ], [ -93.379099226301776, 37.247078281078316 ], [ -93.379069785699556, 37.247085173927111 ], [ -93.379040345097351, 37.247086552496803 ], [ -93.378986659293275, 37.247074145368735 ], [ -93.378981463892885, 37.247071388228882 ], [ -93.378867165084287, 37.247288512683184 ], [ -93.379059394898761, 37.247353305256311 ], [ -93.378981463892885, 37.247496675858329 ], [ -93.378783172777972, 37.247436363739268 ], [ -93.378466253354119, 37.248084285692066 ], [ -93.378774513777358, 37.248185609153296 ], [ -93.378809149779954, 37.248130467150474 ], [ -93.378990988793632, 37.248192501900803 ], [ -93.379184950408231, 37.247827185413698 ], [ -93.379145119005216, 37.24781994799369 ], [ -93.379371984822299, 37.247374673007556 ], [ -93.379215256910499, 37.247340898172148 ], [ -93.379222184111015, 37.247311948301167 ], [ -93.37925335651336, 37.247289891249153 ], [ -93.379291456116221, 37.247267834190687 ], [ -93.379341678320003, 37.247252669959238 ], [ -93.379381509723018, 37.247252669959238 ], [ -93.379857754758845, 37.247398797880727 ], [ -93.379906245162488, 37.247433261971842 ], [ -93.379933953964553, 37.247489783047172 ], [ -93.379946076565503, 37.247527004219961 ], [ -93.379939149364944, 37.247558711130431 ], [ -93.379809264355202, 37.247520111411568 ], [ -93.379589325738635, 37.247952289278018 ], [ -93.379558153336305, 37.247942639400556 ], [ -93.379358996321315, 37.248353447376026 ], [ -93.37951832193329, 37.24840238576072 ], [ -93.379483685930694, 37.248489234083486 ], [ -93.379386705123409, 37.248489234083486 ], [ -93.379307042317407, 37.248656037724231 ], [ -93.378990988793632, 37.24856539860162 ], [ -93.378696582771482, 37.249209175254045 ], [ -93.378982329792962, 37.249302226028291 ], [ -93.37901523399546, 37.249318768376128 ], [ -93.379029088396507, 37.249342203362666 ], [ -93.379034283796884, 37.249373909509352 ], [ -93.378966743591789, 37.249507626589846 ], [ -93.378942498389989, 37.24952554741764 ], [ -93.3789043987871, 37.249531061517644 ], [ -93.378861103783876, 37.249529682992687 ], [ -93.378797027179019, 37.249528304467695 ], [ -93.378315586742829, 37.249375977301071 ], [ -93.37822899673634, 37.249513829953813 ], [ -93.378041962322243, 37.249447660711972 ], [ -93.378132015929012, 37.2492408814567 ], [ -93.377837609906862, 37.249158169595717 ], [ -93.377696035246245, 37.249412508278603 ], [ -93.377372188621877, 37.249309118673672 ], [ -93.377349675220174, 37.24935736717363 ], [ -93.377349675220174, 37.249385626994972 ], [ -93.37736526142136, 37.249411129751479 ], [ -93.377392104323377, 37.24943180765581 ], [ -93.37744059472702, 37.249443525132421 ], [ -93.377647544842588, 37.249509694377878 ], [ -93.377561820736148, 37.249691659503306 ], [ -93.377344912769786, 37.250132095999192 ], [ -93.377154414755466, 37.250491887282408 ], [ -93.37697257574176, 37.250885450109365 ], [ -93.377874843609646, 37.251180448568654 ], [ -93.37806274392382, 37.251269361429159 ], [ -93.378090452725885, 37.251305202242477 ], [ -93.377967494916618, 37.251589171160724 ], [ -93.377837609906862, 37.251820067429115 ], [ -93.377756215300721, 37.251796633213246 ], [ -93.377477395479758, 37.252356295435973 ], [ -93.377520690483024, 37.252370080167331 ], [ -93.377465272878823, 37.252487594899698 ], [ -93.377189916658139, 37.252403508130371 ], [ -93.37716047605592, 37.252382831041579 ], [ -93.377155280655529, 37.252360775473939 ], [ -93.377158744255794, 37.252338719899846 ], [ -93.377221089060455, 37.2522119002235 ], [ -93.377300751866471, 37.252244983637901 ], [ -93.37756225368615, 37.25173081059733 ], [ -93.377480859080038, 37.251702896276875 ], [ -93.377517226882745, 37.25162570106523 ], [ -93.37735963307091, 37.251566426116902 ], [ -93.37703059104615, 37.252232232740305 ], [ -93.377111985652277, 37.252262559195898 ], [ -93.377111985652277, 37.252290128690376 ], [ -93.377091204050714, 37.252317698174771 ], [ -93.377066958848872, 37.252334239860559 ], [ -93.377044445447169, 37.252343889175606 ], [ -93.377016736645089, 37.252345267649069 ], [ -93.376748307624879, 37.252266694620708 ], [ -93.37673272142375, 37.252251531395267 ], [ -93.37671800112264, 37.252235678929061 ], [ -93.376711073922124, 37.25221913722163 ], [ -93.376730123723533, 37.25217985065192 ], [ -93.376769089226499, 37.25210127745104 ], [ -93.376861740533471, 37.252131603959334 ], [ -93.377179525857343, 37.251512148143647 ], [ -93.377019334345306, 37.251457008575237 ], [ -93.376834031731349, 37.251823341326343 ], [ -93.376738782724203, 37.251792325452186 ], [ -93.376587250212779, 37.252096969707402 ], [ -93.376658254018125, 37.252123160784969 ], [ -93.376646131417218, 37.252150041091923 ], [ -93.376639204216701, 37.252168650529597 ], [ -93.376622752115452, 37.252190016915343 ], [ -93.376601970513889, 37.252198977010778 ], [ -93.37658118891234, 37.252206558629169 ], [ -93.376562139110902, 37.252205869391162 ], [ -93.376198894033536, 37.252081117208668 ], [ -93.376152135430033, 37.252172096721267 ], [ -93.376884686885177, 37.252414535908741 ], [ -93.3782294296863, 37.252840741075211 ] ] ] } },
{ "type": "Feature", "properties": { "zIndex": null }, "geometry": { "type": "Polygon", "coordinates": [ [ [ -93.394475798480556, 37.241064719582859 ], [ -93.396746188451971, 37.241765085682367 ], [ -93.39773418042661, 37.239784259814719 ], [ -93.398161935058866, 37.239930574555231 ], [ -93.39822947526396, 37.239812006212546 ], [ -93.39693928416655, 37.239434240714196 ], [ -93.396870012161315, 37.239580383795769 ], [ -93.396722809150191, 37.239539022575009 ], [ -93.396159974107704, 37.239354275511879 ], [ -93.396172962608716, 37.239315326912802 ], [ -93.39582313898228, 37.239206408599664 ], [ -93.395885483786984, 37.239061643509508 ], [ -93.395094051127217, 37.238809337973535 ], [ -93.394995338519792, 37.239003737395599 ], [ -93.395447338353904, 37.2391319580166 ], [ -93.394475798480556, 37.241064719582859 ] ] ] } },
{ "type": "Feature", "properties": { "zIndex": null }, "geometry": { "type": "Polygon", "coordinates": [ [ [ -93.389472276132437, 37.235735933687018 ], [ -93.389632467644489, 37.235783501488704 ], [ -93.391263823367169, 37.236303643100818 ], [ -93.389950252968333, 37.238966684353073 ], [ -93.389641992545165, 37.239581590164335 ], [ -93.389499984934474, 37.239944189222065 ], [ -93.389403004127189, 37.240233026386818 ], [ -93.389380490725486, 37.240318505430956 ], [ -93.389378758925389, 37.24036400230203 ], [ -93.389390881526282, 37.240410877837419 ], [ -93.389425517528892, 37.240470161561042 ], [ -93.389475739732674, 37.24051841572026 ], [ -93.389541548137629, 37.240552882957935 ], [ -93.390385800701097, 37.240894107760475 ], [ -93.390950367543581, 37.24107885104938 ], [ -93.391984252221363, 37.241405597399421 ], [ -93.392400750152675, 37.241533124598988 ], [ -93.392743646578467, 37.241619980838408 ], [ -93.392968780595396, 37.241669612930274 ], [ -93.393181792011447, 37.241717866321601 ], [ -93.393292627219765, 37.241741303671958 ], [ -93.393384412626673, 37.241738546336997 ], [ -93.393455416432019, 37.241720623657315 ], [ -93.393522956637128, 37.241680642279583 ], [ -93.393585301441803, 37.241631010194986 ], [ -93.393628596445069, 37.241556562006792 ], [ -93.39383121706031, 37.241247739107592 ], [ -93.393936856868251, 37.241085055107192 ], [ -93.394025178674909, 37.240952701763085 ], [ -93.394588879617288, 37.239830791034997 ], [ -93.394996718547958, 37.239001152300297 ], [ -93.39545391378239, 37.239130751640886 ], [ -93.394488435209752, 37.241046796742538 ], [ -93.394491032909926, 37.241068855621819 ], [ -93.396746702579648, 37.241764051681507 ], [ -93.397732962753835, 37.239785293842075 ], [ -93.398171108186801, 37.239932814943543 ], [ -93.397265376718693, 37.241734065667487 ], [ -93.3971805185123, 37.241820921675334 ], [ -93.39707141510408, 37.241902262925272 ], [ -93.396944993694561, 37.241958788148942 ], [ -93.39677874088207, 37.241991876065093 ], [ -93.396626342470583, 37.241998769379123 ], [ -93.39643411265611, 37.241967060129355 ], [ -93.396245346441901, 37.241925700218282 ], [ -93.395999430823437, 37.241887097614139 ], [ -93.395802005608559, 37.241859524313377 ], [ -93.395724074602697, 37.241865038974332 ], [ -93.395654802597491, 37.241888476278923 ], [ -93.395590725992662, 37.24192983621041 ], [ -93.395542235589019, 37.241991876065093 ], [ -93.395121408157365, 37.242645014769721 ], [ -93.394962082545362, 37.242984162133602 ], [ -93.394898005940533, 37.243091696344969 ], [ -93.39485124733703, 37.243137191542033 ], [ -93.394771584531028, 37.243197851762091 ], [ -93.394683262724399, 37.243257133293589 ], [ -93.393749822454197, 37.243845465500073 ], [ -93.393350642524155, 37.244144972047216 ], [ -93.393048443401412, 37.244380026984771 ], [ -93.392993025797253, 37.244443443440574 ], [ -93.392967048795299, 37.244524781860136 ], [ -93.39297051239555, 37.244603362961755 ], [ -93.393032857200225, 37.244694351503377 ], [ -93.39316533991024, 37.244858061670911 ], [ -93.393329860922634, 37.245070367379597 ], [ -93.393525554337344, 37.245300594322813 ], [ -93.393800044657979, 37.245593202102356 ], [ -93.394322182397275, 37.246121892194132 ], [ -93.394910128541483, 37.246725021733063 ], [ -93.395453913782404, 37.247266455624462 ], [ -93.395869545813667, 37.247695188549429 ], [ -93.396256603142831, 37.248086008881458 ], [ -93.396841085686773, 37.248683608538506 ], [ -93.397439422631777, 37.24928671757403 ], [ -93.397945974169872, 37.249804008963729 ], [ -93.398539115714513, 37.250398837977436 ], [ -93.399237897067096, 37.251109800678442 ], [ -93.399862211014039, 37.251744595443235 ], [ -93.400450157158275, 37.252346301504289 ], [ -93.400477865960369, 37.252347679977717 ], [ -93.400904754692476, 37.252711940698092 ], [ -93.401065812104576, 37.252842894925919 ], [ -93.401133352309657, 37.252898033480065 ], [ -93.401183574513468, 37.252924224279155 ], [ -93.401245919318157, 37.252933873518614 ], [ -93.401306532322693, 37.25293800890659 ], [ -93.401361949926866, 37.252939387369196 ], [ -93.401401781329881, 37.252926981204844 ], [ -93.401450271733523, 37.25288700577245 ], [ -93.401483175935994, 37.252874599599487 ], [ -93.401757666256643, 37.252716076098231 ], [ -93.402141259985513, 37.253106181158273 ], [ -93.402820125636566, 37.253798164669888 ], [ -93.401977604873153, 37.254336101644171 ], [ -93.400751490380941, 37.255096305834556 ], [ -93.399651797298219, 37.255795852323701 ], [ -93.398752993030612, 37.256360653837994 ], [ -93.398474173209593, 37.256527440052494 ], [ -93.397410847929578, 37.255449525932889 ], [ -93.397689667750569, 37.255268953133445 ], [ -93.397741621754491, 37.25522760052305 ], [ -93.397783184957575, 37.255183491046928 ], [ -93.397800502958901, 37.255087001477889 ], [ -93.397783184957575, 37.254998782335186 ], [ -93.397720840152886, 37.254916076795077 ], [ -93.397267108518761, 37.254356433587752 ], [ -93.395026159150135, 37.252051652229454 ], [ -93.393138497008124, 37.250152773705807 ], [ -93.392293378544537, 37.249301536763866 ], [ -93.392172152535409, 37.249229853213961 ], [ -93.392064780927328, 37.249213310846606 ], [ -93.391867355712463, 37.249227096152985 ], [ -93.391484952596073, 37.249437752852394 ], [ -93.391324240190556, 37.249274306774232 ], [ -93.391621367371414, 37.249082607443512 ], [ -93.391666466897334, 37.249028587497747 ], [ -93.391728811702066, 37.248959660759027 ], [ -93.391742666103099, 37.248860406144502 ], [ -93.39171149370074, 37.248747366007599 ], [ -93.391663003297111, 37.248661896523238 ], [ -93.39162490369425, 37.248595726533267 ], [ -93.390804030432463, 37.247781003769568 ], [ -93.390315662795715, 37.247370192673273 ], [ -93.390132091981897, 37.247229578964756 ], [ -93.390010865972769, 37.247160650580412 ], [ -93.38992427596628, 37.247163407717004 ], [ -93.389809977157682, 37.247193736212765 ], [ -93.38950856952043, 37.247370607323489 ], [ -93.389319465063963, 37.247191286027821 ], [ -93.389629869944102, 37.24697867934286 ], [ -93.389688751148555, 37.246931807892317 ], [ -93.389692214748834, 37.246858743514217 ], [ -93.389685287548318, 37.246806357690083 ], [ -93.389661042346475, 37.246748457526301 ], [ -93.389619479143349, 37.246676771547605 ], [ -93.389179601910243, 37.246122581487803 ], [ -93.387802820806641, 37.244715030702061 ], [ -93.387151663957638, 37.244193913165034 ], [ -93.387072001151651, 37.244140836176655 ], [ -93.38699233834565, 37.244102234707093 ], [ -93.386888430337848, 37.244102234707093 ], [ -93.386815694732363, 37.244110506452238 ], [ -93.386729104725859, 37.244162894150406 ], [ -93.386614805917262, 37.244311785304248 ], [ -93.386264982290925, 37.244842552301883 ], [ -93.385922085865147, 37.245520825725563 ], [ -93.385319419419773, 37.246733982478403 ], [ -93.384529718560358, 37.248313124880404 ], [ -93.38442061515218, 37.248562641516479 ], [ -93.38438944274985, 37.24865638235962 ], [ -93.384413687951664, 37.248733580613454 ], [ -93.384451787554511, 37.248783208020598 ], [ -93.384573013563624, 37.248838349545736 ], [ -93.382470608205438, 37.253188199456346 ], [ -93.382356309396826, 37.253152359538767 ], [ -93.382273182990573, 37.253146845703782 ], [ -93.382148493381209, 37.253166144124471 ], [ -93.382027267372081, 37.253265393067039 ], [ -93.381964922567406, 37.253425293866187 ], [ -93.381869673560203, 37.253625169387853 ], [ -93.381741520350559, 37.253716147035917 ], [ -93.381585658338821, 37.253807124574081 ], [ -93.381447114328424, 37.253831936610879 ], [ -93.381346669920845, 37.253831936610879 ], [ -93.381124999504195, 37.253782312529118 ], [ -93.380605459465073, 37.253616898687142 ], [ -93.379599283589386, 37.25328813759797 ], [ -93.379355099771033, 37.253212322468173 ], [ -93.379251191763217, 37.253151670309421 ], [ -93.379233873761905, 37.253137885721067 ], [ -93.37805798147339, 37.252789824029449 ], [ -93.378089153875763, 37.252701602196709 ], [ -93.378754165125798, 37.252894587321627 ], [ -93.378858073133614, 37.252933184287279 ], [ -93.378923881538569, 37.252933184287279 ], [ -93.379013935145352, 37.252919399658957 ], [ -93.379072816349776, 37.252878045758862 ], [ -93.379086670750823, 37.252855990336194 ], [ -93.379083207150543, 37.252795337890568 ], [ -93.379079743550307, 37.252723657664589 ], [ -93.379114379552902, 37.252627164945018 ], [ -93.379462471379114, 37.251945509284397 ], [ -93.379507498182477, 37.251849015568197 ], [ -93.379507498182477, 37.251802147147181 ], [ -93.379486716580928, 37.251758035665468 ], [ -93.379455544178597, 37.25173046597628 ], [ -93.379420908175987, 37.251705653247392 ], [ -93.379029521346524, 37.25157056158006 ], [ -93.379091866151199, 37.251443740610704 ], [ -93.379396662974145, 37.251529206939587 ], [ -93.379479789380397, 37.251542991822248 ], [ -93.379542134185087, 37.251523692985806 ], [ -93.379601015389525, 37.251482338319626 ], [ -93.379642578592652, 37.251410656844449 ], [ -93.380021842821179, 37.250635251912882 ], [ -93.380212340835513, 37.250279596848131 ], [ -93.380240049637592, 37.250089362054609 ], [ -93.380021842821179, 37.249965295626147 ], [ -93.379924862013894, 37.249954267489287 ], [ -93.380032233621932, 37.249739218497879 ], [ -93.38012228722873, 37.249783331161552 ], [ -93.380364739246971, 37.249805387483683 ], [ -93.380513674058164, 37.249673049453989 ], [ -93.380693781271745, 37.249194700678977 ], [ -93.380965673892177, 37.248286243204561 ], [ -93.381138853905227, 37.247944362593209 ], [ -93.381128463104432, 37.247842349529677 ], [ -93.381079972700789, 37.247795478616332 ], [ -93.380982991893504, 37.247759636133537 ], [ -93.380764785077091, 37.24769897958533 ], [ -93.380823666281486, 37.247588694827137 ], [ -93.381007237095304, 37.247649351464105 ], [ -93.381118072303664, 37.247674165528807 ], [ -93.381194271509386, 37.247674165528807 ], [ -93.381280861515918, 37.247643837226391 ], [ -93.381350133521124, 37.247550095123628 ], [ -93.381738056750308, 37.246765689722551 ], [ -93.381772692752932, 37.246627832042208 ], [ -93.381744983950838, 37.246578203215556 ], [ -93.381672248345353, 37.246525817196385 ], [ -93.381471359530252, 37.246456888168318 ], [ -93.381519849933895, 37.246363144588983 ], [ -93.381654930344069, 37.246404502064848 ], [ -93.38175537475162, 37.246426559375998 ], [ -93.381817719556309, 37.246426559375998 ], [ -93.381890455161766, 37.246401744900481 ], [ -93.381952799966484, 37.246341087259253 ], [ -93.382688815021851, 37.244836348553363 ], [ -93.382844677033589, 37.244544082489185 ], [ -93.382865458635138, 37.244461365472773 ], [ -93.382837749833058, 37.244397949032049 ], [ -93.382782332228899, 37.244356590454984 ], [ -93.382612615816143, 37.2442904166845 ], [ -93.382751159826569, 37.243991255371945 ], [ -93.383114837853924, 37.243836849068572 ], [ -93.383817948706806, 37.242445799448113 ], [ -93.384072523325969, 37.242078387110539 ], [ -93.384276875741349, 37.242053571203272 ], [ -93.384436201353353, 37.241780595684141 ], [ -93.384380783749194, 37.241449714941524 ], [ -93.384242239738739, 37.24133942103785 ], [ -93.383094056252361, 37.240179946609011 ], [ -93.381928554764642, 37.239012182040113 ], [ -93.383277627066178, 37.238134623324129 ], [ -93.386812231132083, 37.23589276944125 ], [ -93.38763829979429, 37.235387446920107 ], [ -93.387721426200528, 37.235357113673288 ], [ -93.387891142613313, 37.235329537983766 ], [ -93.388081640627647, 37.235326780414248 ], [ -93.388320629045609, 37.235368143946268 ], [ -93.389472276132437, 37.235735933687018 ] ], [ [ -93.389849808560612, 37.241309779523718 ], [ -93.389839417759859, 37.241366994528882 ], [ -93.389845479060313, 37.241438685558407 ], [ -93.389893969463941, 37.24151451253465 ], [ -93.390068015376968, 37.241723380992916 ], [ -93.390338176197318, 37.242074940457215 ], [ -93.390389264301163, 37.242126295575027 ], [ -93.390968551444729, 37.242717049245982 ], [ -93.391023969048916, 37.242766680615404 ], [ -93.391084582053466, 37.242821826543114 ], [ -93.391294129869252, 37.243045167137709 ], [ -93.391941390167943, 37.243676066275825 ], [ -93.392084263678697, 37.243795317854847 ], [ -93.392412439803365, 37.244052431889017 ], [ -93.392499029809898, 37.244110334124215 ], [ -93.392574363115585, 37.244130324171273 ], [ -93.392651428221384, 37.244131702795016 ], [ -93.39270944352576, 37.244123431052181 ], [ -93.39280469253292, 37.244091033384088 ], [ -93.392901673340191, 37.244038645635975 ], [ -93.393572312940677, 37.243677444907867 ], [ -93.393680550448792, 37.243620231656607 ], [ -93.393964998620191, 37.24343222033535 ], [ -93.394126056032334, 37.243316414778469 ], [ -93.394307895046026, 37.243175793505898 ], [ -93.394538224463332, 37.242999327223991 ], [ -93.394617021369271, 37.242927293017495 ], [ -93.394738247378399, 37.242717738570782 ], [ -93.394936538493326, 37.242321375770743 ], [ -93.39506642350311, 37.242054605199563 ], [ -93.395165136110535, 37.241811960345821 ], [ -93.395165136110535, 37.241755435012024 ], [ -93.395137427308427, 37.241692016294373 ], [ -93.39509932770558, 37.24164652022494 ], [ -93.395047373701644, 37.241592752107451 ], [ -93.394967710895685, 37.241562421357585 ], [ -93.394747772279132, 37.241470050362388 ], [ -93.394508783861156, 37.241406631404601 ], [ -93.394318285846822, 37.241391465993757 ], [ -93.39419879163782, 37.241438340890177 ], [ -93.394070638428175, 37.241565178698984 ], [ -93.393886201714295, 37.241766464348785 ], [ -93.393794416307401, 37.241864349641723 ], [ -93.393735535102962, 37.241918117565461 ], [ -93.393659335897226, 37.241956720153702 ], [ -93.393579673091253, 37.241993944059367 ], [ -93.393491351284595, 37.242020138648627 ], [ -93.393404761278063, 37.24203668259505 ], [ -93.393302585070373, 37.242040818581074 ], [ -93.393179627261134, 37.24202703196007 ], [ -93.392771788330492, 37.241897437599334 ], [ -93.391782930456088, 37.241587237426572 ], [ -93.391068562902333, 37.241356309802313 ], [ -93.390661589871712, 37.241272210611164 ], [ -93.390296180044189, 37.241192247358768 ], [ -93.390164563234308, 37.241161916447744 ], [ -93.390072777827385, 37.24117156719349 ], [ -93.390022555623602, 37.241179839260276 ], [ -93.389967138019443, 37.241200519423302 ], [ -93.389915184015535, 37.241225335611425 ], [ -93.389896134214098, 37.24124463708543 ], [ -93.389849808560612, 37.241309779523718 ] ], [ [ -93.399849655463115, 37.254896089609247 ], [ -93.395511929086723, 37.250441227119566 ], [ -93.395416680079535, 37.250410899930884 ], [ -93.395337017273562, 37.250372301673075 ], [ -93.395174228061322, 37.250344731476822 ], [ -93.395084174454553, 37.250351624026834 ], [ -93.394990657247504, 37.250369544653907 ], [ -93.39489021283994, 37.25041503545733 ], [ -93.394536925613352, 37.250624568500307 ], [ -93.394453799207113, 37.250676951670002 ], [ -93.394394918002675, 37.250745876837811 ], [ -93.394375868201237, 37.250781717900146 ], [ -93.394372404600958, 37.25083685796276 ], [ -93.394374136401112, 37.25090164748476 ], [ -93.394412236003987, 37.250967815449734 ], [ -93.394607929418697, 37.251226283506071 ], [ -93.394736082628341, 37.251383431650908 ], [ -93.394897140040456, 37.251583312589602 ], [ -93.39542880268047, 37.25212160999785 ], [ -93.396377829151817, 37.253095842710998 ], [ -93.397041108601726, 37.253758534311679 ], [ -93.397735560453995, 37.254477391307994 ], [ -93.398352947200436, 37.255090102930232 ], [ -93.398920977643186, 37.255560143788969 ], [ -93.398983322447876, 37.255611145113392 ], [ -93.399045667252565, 37.255644227035106 ], [ -93.39914784346027, 37.255669038466849 ], [ -93.399210188264959, 37.255669038466849 ], [ -93.399314096272761, 37.255630442902806 ], [ -93.399443981282545, 37.255560143788969 ], [ -93.399627552096362, 37.255441600036647 ], [ -93.399789042458536, 37.255337184890969 ], [ -93.399864375764196, 37.255286872590887 ], [ -93.399913732067901, 37.255186937100675 ], [ -93.399920659268432, 37.255087690689507 ], [ -93.399901609467022, 37.254984998084787 ], [ -93.399849655463115, 37.254896089609247 ] ], [ [ -93.400192984838966, 37.254626951297574 ], [ -93.400374823852644, 37.254719306165896 ], [ -93.400487390861102, 37.254753766908649 ], [ -93.400579176268025, 37.254760659055314 ], [ -93.400669229874779, 37.25475238847924 ], [ -93.400776601482875, 37.254708278724884 ], [ -93.400903022892379, 37.254631086592603 ], [ -93.401480578235834, 37.254269247418215 ], [ -93.401556777441556, 37.254204460792124 ], [ -93.401593145244291, 37.254154836955728 ], [ -93.401606999645338, 37.25410796996912 ], [ -93.401610463245618, 37.254056967627029 ], [ -93.401591413444194, 37.254004586807334 ], [ -93.401551582041179, 37.253945313730597 ], [ -93.401508287037913, 37.253884662161944 ], [ -93.401167122412261, 37.253456653681361 ], [ -93.401018187601053, 37.253269183822653 ], [ -93.400422448356224, 37.252664383580047 ], [ -93.400043184127682, 37.252290817927722 ], [ -93.399217115465575, 37.251444774478152 ], [ -93.398271552594395, 37.250492576536203 ], [ -93.397645506847297, 37.249857081963391 ], [ -93.39746366783362, 37.24968614541519 ], [ -93.397131162208595, 37.249424225758339 ], [ -93.396951054995071, 37.249289130000477 ], [ -93.396913821292301, 37.249267073527214 ], [ -93.396868794488938, 37.24926018087799 ], [ -93.39680818148436, 37.249254666758162 ], [ -93.396757959280578, 37.249265694997426 ], [ -93.396683491874981, 37.249297401176285 ], [ -93.396605560869119, 37.249341514098603 ], [ -93.395947476819586, 37.249737150716136 ], [ -93.395852227812412, 37.249814347862703 ], [ -93.395822787210221, 37.249861217520241 ], [ -93.395791614807862, 37.249935657504651 ], [ -93.395788151207611, 37.250001826317956 ], [ -93.395798542008379, 37.250074887648452 ], [ -93.39594920861974, 37.250413312321321 ], [ -93.400192984838966, 37.254626951297574 ] ], [ [ -93.395040013551281, 37.24937804509284 ], [ -93.395201070963424, 37.249470406395503 ], [ -93.395258220367694, 37.249491084283584 ], [ -93.395320565172412, 37.249513140691285 ], [ -93.395372519176306, 37.24951451921654 ], [ -93.395462572783075, 37.249517276267007 ], [ -93.395530112988169, 37.249499355437237 ], [ -93.39559592139311, 37.249474541973584 ], [ -93.39567212059886, 37.249430429129148 ], [ -93.395762174205629, 37.24937804509284 ], [ -93.396299032245992, 37.249029276764787 ], [ -93.39640553795401, 37.248972067576616 ], [ -93.396445369357025, 37.248915547613123 ], [ -93.396459223758058, 37.2488493778459 ], [ -93.396452296557541, 37.248780450943265 ], [ -93.396428051355699, 37.248732202073889 ], [ -93.396362242950772, 37.248642596948791 ], [ -93.395877338914303, 37.24807050017673 ], [ -93.395219254864784, 37.247397763957871 ], [ -93.39399314037253, 37.246146017468362 ], [ -93.39329349311987, 37.245440177680919 ], [ -93.393130703907644, 37.245271988318734 ], [ -93.39294973079403, 37.245140331629848 ], [ -93.392807723183338, 37.245024528697662 ], [ -93.392658788372131, 37.244903211149293 ], [ -93.392570466565459, 37.244846688133912 ], [ -93.392464826757518, 37.244826008971373 ], [ -93.39237996855114, 37.244826008971373 ], [ -93.392328014547246, 37.244850823965749 ], [ -93.391721884501635, 37.245207883258118 ], [ -93.39151753208624, 37.24536642255601 ], [ -93.391474237083003, 37.245424323781648 ], [ -93.39144826008102, 37.24547946776471 ], [ -93.391437869280267, 37.245597337893223 ], [ -93.391441332880504, 37.245655238941445 ], [ -93.391526191086896, 37.245793098401037 ], [ -93.395040013551281, 37.24937804509284 ] ], [ [ -93.394655553922377, 37.249599987733816 ], [ -93.391219662463797, 37.246043140352334 ], [ -93.391034359849883, 37.245972832292743 ], [ -93.390959892444258, 37.245938367533689 ], [ -93.39084039823527, 37.245913552897413 ], [ -93.390764199029547, 37.24591217430627 ], [ -93.39068453622356, 37.245921824443741 ], [ -93.390585823616107, 37.245945260486771 ], [ -93.390189241386267, 37.246203056478898 ], [ -93.390052429175995, 37.246280257246134 ], [ -93.390021256773636, 37.246339536352991 ], [ -93.390002206972213, 37.246402951159887 ], [ -93.389997011571836, 37.246441551450999 ], [ -93.390019524973496, 37.246488423206465 ], [ -93.390087065178605, 37.246589059524162 ], [ -93.390400521002164, 37.246993671308012 ], [ -93.390507892610259, 37.24713979973172 ], [ -93.391036091649994, 37.247656761220377 ], [ -93.391373792675395, 37.248011050112453 ], [ -93.391690712099248, 37.248315020382819 ], [ -93.391993777122039, 37.248637599736774 ], [ -93.392286451344077, 37.248928471389021 ], [ -93.392441447455724, 37.249101477455334 ], [ -93.39270814467578, 37.249366155290062 ], [ -93.3929605545448, 37.249628936725756 ], [ -93.393160577459838, 37.249817449532117 ], [ -93.393382247876517, 37.250012509818809 ], [ -93.39360738189346, 37.250198953896465 ], [ -93.393745060003837, 37.25032026291921 ], [ -93.393888799414626, 37.25040573052248 ], [ -93.393967596320564, 37.250420894119408 ], [ -93.394078431528925, 37.250422961882379 ], [ -93.394143374033789, 37.250388499158667 ], [ -93.394425657455074, 37.250226179518002 ], [ -93.394662481122907, 37.250061964069204 ], [ -93.394722228227423, 37.250010958988142 ], [ -93.394750802929565, 37.249937897595643 ], [ -93.394753400629739, 37.249824686760249 ], [ -93.394727423627799, 37.24972612254588 ], [ -93.394655553922377, 37.249599987733816 ] ], [ [ -93.390317394595968, 37.245180138846692 ], [ -93.388195506486298, 37.242969341701425 ], [ -93.387930541066368, 37.242903166712857 ], [ -93.38784048745957, 37.242890758896031 ], [ -93.38774870205269, 37.242881108370419 ], [ -93.387634403244093, 37.242897652127844 ], [ -93.387566863038998, 37.242925225048843 ], [ -93.387483736632745, 37.242981749505319 ], [ -93.387146035607344, 37.24340085634794 ], [ -93.387132181206297, 37.243464273627701 ], [ -93.387128717606018, 37.243541477200587 ], [ -93.387159890008391, 37.243582491566521 ], [ -93.387312288419835, 37.243786529088851 ], [ -93.387547813237575, 37.244104991955574 ], [ -93.387682893647735, 37.244245611494392 ], [ -93.388344441297491, 37.244930438684264 ], [ -93.388824149933598, 37.245421566581456 ], [ -93.389432011779348, 37.245908210856591 ], [ -93.38947703858274, 37.245948879286864 ], [ -93.389554103688539, 37.245976451091522 ], [ -93.389591337391323, 37.245986790515666 ], [ -93.389663207096731, 37.245990236990068 ], [ -93.38974373580281, 37.245973693911516 ], [ -93.389812574857999, 37.245933542466169 ], [ -93.390248122590776, 37.245665750734126 ], [ -93.390330383096938, 37.245603024605295 ], [ -93.39039532560183, 37.245529269639761 ], [ -93.3904039846025, 37.245450000203803 ], [ -93.390388398401313, 37.245333508446606 ], [ -93.390317394595968, 37.245180138846692 ] ], [ [ -93.38613899383158, 37.242265195483455 ], [ -93.386143323331922, 37.242460275319658 ], [ -93.386158043633046, 37.242565742299959 ], [ -93.386219522537658, 37.24265121869859 ], [ -93.386270610641517, 37.24269533551157 ], [ -93.386524319360603, 37.242942458119316 ], [ -93.386590993665607, 37.243000533537852 ], [ -93.386675851871985, 37.243030174387037 ], [ -93.386758112378189, 37.243026727777263 ], [ -93.386868947586521, 37.24299570828223 ], [ -93.386953805792913, 37.242926086702433 ], [ -93.387001430296493, 37.242846125204721 ], [ -93.387231326763796, 37.242557642716825 ], [ -93.38732527692089, 37.242436148865508 ], [ -93.387335667721658, 37.242418915679245 ], [ -93.387341729022111, 37.242388585261857 ], [ -93.387344326722328, 37.242344468269323 ], [ -93.387338265421846, 37.24227898206091 ], [ -93.387329606421204, 37.242163864061872 ], [ -93.386612641167233, 37.241338731700445 ], [ -93.38613899383158, 37.242265195483455 ] ], [ [ -93.39208339777889, 37.244337979087895 ], [ -93.391560394139461, 37.243667277495909 ], [ -93.391176800410605, 37.243278846866147 ], [ -93.390277996142984, 37.242357220840141 ], [ -93.389603459992259, 37.241712351649873 ], [ -93.389186096160856, 37.24137871325955 ], [ -93.389101237954463, 37.241315294224918 ], [ -93.389038893149788, 37.241287720714951 ], [ -93.388957498543647, 37.241272555280162 ], [ -93.388870908537143, 37.241282206011746 ], [ -93.388810295532565, 37.241302886146677 ], [ -93.388704655724624, 37.241392499999144 ], [ -93.388560916313821, 37.241552425994172 ], [ -93.388309805294966, 37.241890199609834 ], [ -93.388179920285211, 37.242059430515425 ], [ -93.388149613782915, 37.242105615666027 ], [ -93.388124502681009, 37.242191781916112 ], [ -93.388131429881525, 37.242262093503193 ], [ -93.388145284282587, 37.242320686442319 ], [ -93.388186847485727, 37.242376177360313 ], [ -93.388225812988651, 37.242457518010994 ], [ -93.390654662671366, 37.244921822376782 ], [ -93.390711812075665, 37.244949394557203 ], [ -93.390864210487166, 37.245045897109264 ], [ -93.390996693197124, 37.245069333424681 ], [ -93.391094539904472, 37.245070022727973 ], [ -93.39116987321016, 37.245066576211492 ], [ -93.391235681615115, 37.245047275716253 ], [ -93.391296294619636, 37.245021082179115 ], [ -93.391386781176465, 37.244969039729618 ], [ -93.391725348101943, 37.244751219286087 ], [ -93.391940524268165, 37.244615770496608 ], [ -93.392000271372652, 37.244578547885872 ], [ -93.392050493576434, 37.244526160476646 ], [ -93.392081665978793, 37.244479976809373 ], [ -93.392095520379826, 37.244433793113771 ], [ -93.392098983980077, 37.244384852151747 ], [ -93.39208339777889, 37.244337979087895 ] ], [ [ -93.38568526219737, 37.243276434247264 ], [ -93.3850501244996, 37.244488765494481 ], [ -93.385086492302349, 37.244585268636385 ], [ -93.385103810303633, 37.244637656004521 ], [ -93.385140178106383, 37.244718994214466 ], [ -93.38518520490976, 37.244782410385035 ], [ -93.38525274511484, 37.24484169067015 ], [ -93.38531335811939, 37.244876155930754 ], [ -93.385555810137646, 37.244960251100466 ], [ -93.385625082142838, 37.244961629709039 ], [ -93.38570994034923, 37.244951979448601 ], [ -93.385767089753529, 37.244931300314924 ], [ -93.385805189356418, 37.244913378394493 ], [ -93.385838093558888, 37.244884427590947 ], [ -93.385877924961903, 37.244832040394343 ], [ -93.386165403783522, 37.244265773833213 ], [ -93.386285763892587, 37.244029856898337 ], [ -93.386447687204765, 37.243707602477627 ], [ -93.386480591407263, 37.243624884543117 ], [ -93.386477127806998, 37.243564224666784 ], [ -93.386469334706405, 37.243515283140056 ], [ -93.386423442002922, 37.243448419312735 ], [ -93.386190947835445, 37.243227492533642 ], [ -93.386087039827601, 37.243150977959949 ], [ -93.385984863619939, 37.243134434258124 ], [ -93.385862771710748, 37.243145463393077 ], [ -93.385783108904732, 37.243190958557705 ], [ -93.38568526219737, 37.243276434247264 ] ], [ [ -93.384657005870025, 37.244252676929975 ], [ -93.385406009426362, 37.242878868069646 ], [ -93.385390423225203, 37.242716187589977 ], [ -93.385369641623655, 37.242503875249341 ], [ -93.385314224019453, 37.242360495148489 ], [ -93.385160093807869, 37.242167483043552 ], [ -93.38506138120043, 37.242120608600622 ], [ -93.384973059393801, 37.24211647261896 ], [ -93.384867419585859, 37.242127501902885 ], [ -93.384779097779187, 37.242171619022422 ], [ -93.384650944569543, 37.242324650080675 ], [ -93.38421539683678, 37.242988815059391 ], [ -93.384080316426619, 37.243223184282691 ], [ -93.38375646980225, 37.244139629881019 ], [ -93.383735688200687, 37.244197532049235 ], [ -93.383740883601078, 37.244271977628699 ], [ -93.383789374004749, 37.244347801754422 ], [ -93.383837864408392, 37.244397432049951 ], [ -93.383948699616738, 37.244456712637877 ], [ -93.384071657425991, 37.244491178074547 ], [ -93.384217128636919, 37.244517371795858 ], [ -93.384327963845251, 37.244500828393996 ], [ -93.384457848855035, 37.244460848491116 ], [ -93.384570415863507, 37.24439467481217 ], [ -93.384657005870025, 37.244252676929975 ] ], [ [ -93.383126960454916, 37.244762075857885 ], [ -93.382887539086894, 37.245122065107708 ], [ -93.38249398750726, 37.245808090602047 ], [ -93.38120379641019, 37.248402558079043 ], [ -93.381176087608111, 37.248486649313534 ], [ -93.381181283008516, 37.248567983369092 ], [ -93.381207260010484, 37.24910078818889 ], [ -93.381231505212313, 37.249198663955774 ], [ -93.381257482214252, 37.249234505754075 ], [ -93.381292118216862, 37.24927999724278 ], [ -93.381522447634168, 37.249376494249084 ], [ -93.381652332643966, 37.249417850071097 ], [ -93.38176663145255, 37.24942060712511 ], [ -93.381861880459724, 37.249417850071097 ], [ -93.381932884265055, 37.249397172162936 ], [ -93.382038524073025, 37.249355816329569 ], [ -93.382126845879682, 37.249285511360753 ], [ -93.382201313285265, 37.249211070734027 ], [ -93.38418941983484, 37.24529008247918 ], [ -93.38417729723389, 37.245110863936297 ], [ -93.384151320231965, 37.245019875897555 ], [ -93.384076852826368, 37.244923373312176 ], [ -93.383934845215677, 37.244833763657972 ], [ -93.383596278290213, 37.244733124996209 ], [ -93.383409243876159, 37.244682116308105 ], [ -93.383284554266751, 37.244686252148988 ], [ -93.383187573459466, 37.244711067189385 ], [ -93.383126960454916, 37.244762075857885 ] ], [ [ -93.379817057455853, 37.251910702636707 ], [ -93.379761639851679, 37.251954814029034 ], [ -93.379721808448693, 37.252029251945039 ], [ -93.379500138032, 37.25253584136442 ], [ -93.37946723382953, 37.252883214997595 ], [ -93.379778957852963, 37.253073442737055 ], [ -93.380191126283989, 37.2531147965299 ], [ -93.380291570691554, 37.253023818155675 ], [ -93.380650919218596, 37.252349403069452 ], [ -93.380645723818219, 37.252308048856477 ], [ -93.380633601217269, 37.252201906272632 ], [ -93.380609356015469, 37.252159173501838 ], [ -93.380579915413264, 37.252130225482063 ], [ -93.379953003766076, 37.251916561182476 ], [ -93.379868145559698, 37.251902776368148 ], [ -93.379817057455853, 37.251910702636707 ] ], [ [ -93.380737509225114, 37.253176482562019 ], [ -93.380760022626816, 37.253304679070624 ], [ -93.381004206445184, 37.253456309068035 ], [ -93.381125432454311, 37.253492148841026 ], [ -93.381421570276601, 37.253521096337508 ], [ -93.381729830699769, 37.253249540814096 ], [ -93.381752344101471, 37.25322059321325 ], [ -93.383210519811229, 37.250365753752327 ], [ -93.383989829869847, 37.248816292940468 ], [ -93.385080863951956, 37.246638171376908 ], [ -93.385244519064273, 37.246292836827884 ], [ -93.385493898283016, 37.24557252314461 ], [ -93.38551987528497, 37.245466371072361 ], [ -93.385509484484203, 37.245412605680023 ], [ -93.38548523928236, 37.245379519265668 ], [ -93.385441944279094, 37.24534091843055 ], [ -93.385192565060365, 37.24523476603207 ], [ -93.385133683855912, 37.245225115806598 ], [ -93.385040166648906, 37.245214086975999 ], [ -93.384960503842905, 37.245214086975999 ], [ -93.384875645636512, 37.245233387428499 ], [ -93.38479078743012, 37.245255445082449 ], [ -93.38459336221527, 37.245369869058742 ], [ -93.380737509225114, 37.253176482562019 ] ], [ [ -93.38100767004542, 37.251613639306335 ], [ -93.381736757900285, 37.250135542284049 ], [ -93.38169865829741, 37.249965984884568 ], [ -93.381646704293516, 37.249848810848974 ], [ -93.381532405484919, 37.249772992258244 ], [ -93.381220681461457, 37.249659953490408 ], [ -93.381120237053878, 37.249640654171628 ], [ -93.380986888443871, 37.249654439399841 ], [ -93.380905493837744, 37.249716472895528 ], [ -93.380709800422991, 37.249986662636651 ], [ -93.380553938411268, 37.25021687455979 ], [ -93.38033746339498, 37.250599755407144 ], [ -93.379961662766704, 37.25132415651192 ], [ -93.379933953964624, 37.251406865995236 ], [ -93.379937417564889, 37.251482682941869 ], [ -93.379959930966592, 37.251557121324332 ], [ -93.379989371568783, 37.251603989897767 ], [ -93.380051716373501, 37.251663264816557 ], [ -93.380124451978958, 37.251705997868612 ], [ -93.380465616604639, 37.251814898117487 ], [ -93.380531425009607, 37.251830061430795 ], [ -93.380663041819489, 37.251820412049952 ], [ -93.380756559026537, 37.251795599350672 ], [ -93.380882980436056, 37.251730810597387 ], [ -93.38100767004542, 37.251613639306335 ] ], [ [ -93.386085308027461, 37.241460054986632 ], [ -93.386352005247559, 37.240980964736202 ], [ -93.385737216201292, 37.240559087058962 ], [ -93.38568699399751, 37.240553572302446 ], [ -93.385614258392025, 37.240545300166922 ], [ -93.385553645387475, 37.240543921477574 ], [ -93.385482641582129, 37.240568737881901 ], [ -93.385418564977314, 37.240634914920122 ], [ -93.385385660774816, 37.24069971321375 ], [ -93.385146672356839, 37.241355275796373 ], [ -93.385129354355556, 37.241433860202726 ], [ -93.385138013356212, 37.241501415153223 ], [ -93.385179576559324, 37.241574484725405 ], [ -93.38524538496425, 37.241651690234129 ], [ -93.385345829371829, 37.241722002325062 ], [ -93.385441078379017, 37.241753711677944 ], [ -93.385602135791132, 37.241767498348942 ], [ -93.385738948001432, 37.241737167669406 ], [ -93.385872296611467, 37.241684778285077 ], [ -93.385955423017705, 37.241633767533791 ], [ -93.386085308027461, 37.241460054986632 ] ], [ [ -93.386917437990121, 37.240858951336968 ], [ -93.386887131487825, 37.240957527149412 ], [ -93.386893192788278, 37.241021635825405 ], [ -93.386915706189967, 37.241085744446842 ], [ -93.386959867093296, 37.241159503761047 ], [ -93.387315752020072, 37.241570348713758 ], [ -93.387468150431559, 37.241622738177618 ], [ -93.387565131238858, 37.241659962248214 ], [ -93.387627476043534, 37.241669612930188 ], [ -93.387727920451098, 37.241675127605042 ], [ -93.387828364858663, 37.241651690234121 ], [ -93.387932272866479, 37.241610330149996 ], [ -93.387994617671154, 37.241557940677517 ], [ -93.38806388967636, 37.241500036481369 ], [ -93.388107184679654, 37.241433860202712 ], [ -93.388598150016549, 37.240814488777971 ], [ -93.388850126935495, 37.240485671829795 ], [ -93.388974816544888, 37.2403202287977 ], [ -93.389142801157533, 37.239982448146293 ], [ -93.389447597980464, 37.239378919969013 ], [ -93.390389697251393, 37.23747213900279 ], [ -93.390455505656305, 37.237325991833799 ], [ -93.390656394471449, 37.236785520596491 ], [ -93.390687566873765, 37.236693143747253 ], [ -93.390704884875092, 37.236610418114552 ], [ -93.390696225874422, 37.236553888879982 ], [ -93.39065293087117, 37.236490465785863 ], [ -93.390614831268323, 37.236436693990377 ], [ -93.390542095662838, 37.236409118695754 ], [ -93.389735076802097, 37.236141637814463 ], [ -93.389677927397798, 37.236125092574134 ], [ -93.389606923592481, 37.2361140624119 ], [ -93.389535919787136, 37.23611957749322 ], [ -93.389457988781274, 37.236133365194746 ], [ -93.389397375776696, 37.236159561820706 ], [ -93.389331567371769, 37.23618575843755 ], [ -93.389248440965517, 37.236235394107673 ], [ -93.389141069357436, 37.236265727001118 ], [ -93.386917437990121, 37.240858951336968 ] ], [ [ -93.38654250326185, 37.240487395192815 ], [ -93.388772628879778, 37.236052620931822 ], [ -93.388745785977733, 37.235991265574931 ], [ -93.388744920077698, 37.235932667715581 ], [ -93.388706820474823, 37.235848562473123 ], [ -93.388654000570853, 37.235778244903301 ], [ -93.388577801365102, 37.235723093822259 ], [ -93.388484284158082, 37.235685177430639 ], [ -93.388139222982105, 37.235585905333167 ], [ -93.388082073577806, 37.235580390212803 ], [ -93.388048303475273, 37.23558176899293 ], [ -93.388009337972321, 37.235591420453119 ], [ -93.387962579368818, 37.235628647502281 ], [ -93.387862134961253, 37.235770661632053 ], [ -93.387704541149375, 37.235980235393136 ], [ -93.38735168687279, 37.236694177817064 ], [ -93.386078813777004, 37.239244840237589 ], [ -93.385937672066376, 37.239520237679656 ], [ -93.385851515009861, 37.239745483775671 ], [ -93.385800859856062, 37.239868705341365 ], [ -93.385794365605562, 37.239896968721048 ], [ -93.385794798555622, 37.239922130013554 ], [ -93.385808220006638, 37.239970039848657 ], [ -93.385822940307705, 37.240057931913 ], [ -93.386361530148235, 37.240559087058962 ], [ -93.386404825151502, 37.240569427226347 ], [ -93.386455913255318, 37.240570116570787 ], [ -93.386486219757614, 37.240561844437082 ], [ -93.386510464959414, 37.240545300166922 ], [ -93.38654250326185, 37.240487395192815 ] ], [ [ -93.385324614820263, 37.240144703683839 ], [ -93.383778983203953, 37.238502313397234 ], [ -93.383695856797715, 37.238502313397234 ], [ -93.383590216989774, 37.238462330312352 ], [ -93.383474186381008, 37.23844027067026 ], [ -93.383361619372579, 37.23845405794733 ], [ -93.383247320563981, 37.238480253766816 ], [ -93.38316592595784, 37.238518858115782 ], [ -93.382809175131001, 37.238749105072259 ], [ -93.382739903125767, 37.238786330562043 ], [ -93.382684485521608, 37.238838721960988 ], [ -93.382644654118607, 37.238900764359997 ], [ -93.382625604317184, 37.238971079017141 ], [ -93.382627336117324, 37.23904966590927 ], [ -93.382649849518984, 37.239108950703489 ], [ -93.382689680922013, 37.239169614165611 ], [ -93.383998055920443, 37.240490411077964 ], [ -93.384540109361211, 37.241056016665439 ], [ -93.384611113166571, 37.241116678560523 ], [ -93.384661335370353, 37.241144252133061 ], [ -93.384713289374275, 37.241152524202839 ], [ -93.384780829579341, 37.241141494776251 ], [ -93.384846637984296, 37.241115299881621 ], [ -93.384893396587799, 37.241084968939631 ], [ -93.384955741392488, 37.240993976040421 ], [ -93.385076967401616, 37.240776144108175 ], [ -93.385302101418546, 37.240332206196079 ], [ -93.385352323622342, 37.240243969777822 ], [ -93.385324614820263, 37.240144703683839 ] ], [ [ -93.385377434724248, 37.239561168064647 ], [ -93.38546229293064, 37.239609422805806 ], [ -93.385522905935176, 37.239623209869023 ], [ -93.385573128138972, 37.239624588575218 ], [ -93.385625082142894, 37.239613558925036 ], [ -93.38569262234796, 37.239572197722495 ], [ -93.38572206295018, 37.239490853957967 ], [ -93.386048507274751, 37.238832862398425 ], [ -93.386658100920599, 37.237610616630839 ], [ -93.387378529774793, 37.236184293495384 ], [ -93.387402774976593, 37.236129142711405 ], [ -93.387407970376984, 37.236096741606993 ], [ -93.387407104476949, 37.236070544959219 ], [ -93.387401909076544, 37.236041590758965 ], [ -93.387390652375714, 37.236011257775353 ], [ -93.387357748173216, 37.23598988680228 ], [ -93.387326575770885, 37.235965068890479 ], [ -93.387272889966852, 37.235953349318187 ], [ -93.387238253964213, 37.235951970544853 ], [ -93.387190629460633, 37.235956106864762 ], [ -93.387107503054395, 37.23600091698269 ], [ -93.387006192746753, 37.236062272331715 ], [ -93.385622917392652, 37.236915726951999 ], [ -93.384046979274089, 37.237916696957207 ], [ -93.383982902669302, 37.237959437804804 ], [ -93.38395865746746, 37.237997353052521 ], [ -93.383956925667334, 37.23805801740923 ], [ -93.38396558466799, 37.23813936272002 ], [ -93.385377434724248, 37.239561168064647 ] ] ] } }
]
}
