{
"type": "FeatureCollection",
"name": "DCA_Runway",
"crs": { "type": "name", "properties": { "name": "urn:ogc:def:crs:OGC:1.3:CRS84" } },
"features": [
{ "type": "Feature", "properties": { }, "geometry": { "type": "Polygon", "coordinates": [ [ [ -77.037006478114137, 38.841553033327422 ], [ -77.036478279074387, 38.841581696814281 ], [ -77.038450799422776, 38.861207066919626 ], [ -77.038983327962839, 38.861177399966493 ], [ -77.037006478114137, 38.841553033327422 ] ] ] } },
{ "type": "Feature", "properties": { }, "geometry": { "type": "Polygon", "coordinates": [ [ [ -77.040913419208067, 38.841533811923874 ], [ -77.041381005243267, 38.841709164886545 ], [ -77.034110908296213, 38.853599785137973 ], [ -77.033638126860609, 38.853420415546211 ], [ -77.040913419208067, 38.841533811923874 ] ] ] } },
{ "type": "Feature", "properties": { }, "geometry": { "type": "Polygon", "coordinates": [ [ [ -77.032412012368354, 38.849677826523923 ], [ -77.031994648536937, 38.849928687296568 ], [ -77.043081632971194, 38.861282582744522 ], [ -77.043497265002472, 38.861035807519578 ], [ -77.032412012368354, 38.849677826523923 ] ] ] } }
]
}
