{
"type": "FeatureCollection",
"name": "EWR_runway",
"crs": { "type": "name", "properties": { "name": "urn:ogc:def:crs:EPSG::32118" } },
"features": [
{ "type": "Feature", "properties": { "OBJECTID": 61, "FAA_ID": "EWR", "ICAO_ID": "KEWR", "DESIGNATOR": null, "SURFACE": "1", "RWY_OPER": "2", "RWY_ID": "04R/22L", "Shape__Area": 1.5217089185171062e-05, "Shape__Length": 0.059614814555281385 }, "geometry": { "type": "Polygon", "coordinates": [ [ [ 285290.316198964021169, 56740.210771254634892 ], [ 285268.543213117984124, 56750.720241887902375 ], [ 285248.103533281479031, 56760.586045579519123 ], [ 285248.408121192362159, 56761.211971045333485 ], [ 285249.001337988243904, 56762.431316745663935 ], [ 286517.21713866252685, 59370.382765810347337 ], [ 286539.031282173236832, 59415.259192626581353 ], [ 286562.553197857108898, 59463.649594856091426 ], [ 286577.745852310908958, 59494.899216371930379 ], [ 286580.958469419972971, 59501.507314931892324 ], [ 286599.238141521171201, 59492.687915030306613 ], [ 286601.466402737307362, 59491.612830210564425 ], [ 286603.494459696754348, 59490.634386385107064 ], [ 286623.159242617490236, 59481.146810490499774 ], [ 286588.975977494788822, 59410.821950503210246 ], [ 286567.162208512774669, 59365.945487217621121 ], [ 286384.193591153773014, 58989.556695207516896 ], [ 286363.881048941286281, 58947.773891976677987 ], [ 286253.46620991412783, 58720.660722325053939 ], [ 286239.098438426561188, 58691.108741082687629 ], [ 285291.483691360917874, 56742.610529163219326 ], [ 285290.316198964021169, 56740.210771254634892 ] ] ] } },
{ "type": "Feature", "properties": { "OBJECTID": 62, "FAA_ID": "EWR", "ICAO_ID": "KEWR", "DESIGNATOR": null, "SURFACE": "1", "RWY_OPER": "2", "RWY_ID": "11/29", "Shape__Area": 1.0185490964431665e-05, "Shape__Length": 0.049276848322006815 }, "geometry": { "type": "Polygon", "coordinates": [ [ [ 286769.876750965137035, 59371.37467928903061 ], [ 286769.530896388867404, 59367.524038538671448 ], [ 286767.790116740914527, 59348.124494494077226 ], [ 286766.339743914024439, 59348.253344060365635 ], [ 286765.16974495141767, 59348.357262993071345 ], [ 286705.557300534448586, 59353.651829410344362 ], [ 286704.847494231420569, 59353.714844579211785 ], [ 286567.162208512774669, 59365.945487217621121 ], [ 286517.21713866252685, 59370.382765810347337 ], [ 286384.1155823446461, 59382.209596471511759 ], [ 286382.985984971863218, 59382.309948094174615 ], [ 286338.818314344156533, 59386.235109571032808 ], [ 286299.592161087959539, 59389.721314490525401 ], [ 286258.341005472640973, 59393.387712683164864 ], [ 286208.83054610673571, 59397.788510402599059 ], [ 286102.416937132831663, 59407.248362835031003 ], [ 286100.332164700608701, 59407.433722757879877 ], [ 286017.416321798227727, 59414.80572930159542 ], [ 286015.322427613835316, 59414.991907708186773 ], [ 285981.359698186512105, 59418.011801476808614 ], [ 285980.464259253523778, 59418.09145005820028 ], [ 285932.340504760039039, 59422.370766346684832 ], [ 285930.785297173832078, 59422.509084477358556 ], [ 285890.229507961834315, 59426.1156936539046 ], [ 285887.193201697489712, 59426.385766090032121 ], [ 285751.547433812229428, 59438.45057690487738 ], [ 285746.557186698133592, 59438.894476399866107 ], [ 285640.908866797399241, 59448.292863791895797 ], [ 285629.45102616265649, 59449.312271926486574 ], [ 285550.176133676897734, 59456.3656369813325 ], [ 285505.224093587195966, 59460.365595637209481 ], [ 285502.817665561567992, 59460.579736739950022 ], [ 285371.213157387275714, 59472.291817161312792 ], [ 285367.348892087407876, 59472.635806562037033 ], [ 285334.557489570695907, 59475.554414543687017 ], [ 285307.740877080301289, 59477.941399464274582 ], [ 285305.413550418510567, 59478.148563029579236 ], [ 285120.644181719981134, 59494.597801597192301 ], [ 285114.208509829943068, 59495.170845616878069 ], [ 285034.351978567836341, 59502.28165193102177 ], [ 285006.302234177477658, 59504.779490453853214 ], [ 285003.615219071041793, 59505.018791834845615 ], [ 284783.13286167208571, 59524.656897713146464 ], [ 284781.407097429619171, 59524.810687825200148 ], [ 284757.018177837890107, 59526.983360909332987 ], [ 284729.103475395531859, 59529.470312246266985 ], [ 284727.701335931196809, 59529.595242125840741 ], [ 284726.546687533380464, 59529.698119089320244 ], [ 284725.920989548962098, 59529.754154755020863 ], [ 284727.97121405811049, 59552.467373582192522 ], [ 284730.113525735680014, 59576.197715567264822 ], [ 284730.739473361696582, 59576.141679748616298 ], [ 284732.019929390691686, 59576.027550575636269 ], [ 284809.071706616086885, 59569.163200340488402 ], [ 285300.221156363026239, 59525.426916951379098 ], [ 285385.115431532030925, 59517.870518344097945 ], [ 285826.044008457916789, 59478.639468129207671 ], [ 285904.82325048558414, 59471.633085757304798 ], [ 285929.868643988331314, 59469.405759070396016 ], [ 285993.849636767990887, 59463.716242042595695 ], [ 286047.706575596355833, 59458.927486038352072 ], [ 286106.277867127617355, 59453.719964975403855 ], [ 286230.647239840007387, 59442.664136964805948 ], [ 286280.157327410648577, 59438.263485493873304 ], [ 286361.777109766553622, 59431.009518717641186 ], [ 286412.099984323373064, 59426.537517431475862 ], [ 286539.031282173236832, 59415.259192626581353 ], [ 286588.975977494788822, 59410.821950503210246 ], [ 286726.843322711007204, 59398.575395867555926 ], [ 286771.958285257627722, 59394.568350936031493 ], [ 286770.026269033260178, 59373.040133451926522 ], [ 286769.876750965137035, 59371.37467928903061 ] ] ] } },
{ "type": "Feature", "properties": { "OBJECTID": 111, "FAA_ID": "EWR", "ICAO_ID": "KEWR", "DESIGNATOR": null, "SURFACE": "1", "RWY_OPER": "2", "RWY_ID": "04L/22R", "Shape__Area": 1.6595137594777043e-05, "Shape__Length": 0.065466232577315819 }, "geometry": { "type": "Polygon", "coordinates": [ [ [ 284870.758561753260437, 56540.41207468893117 ], [ 284849.484319562150631, 56496.689605691972247 ], [ 284829.287069660495035, 56506.438245556331822 ], [ 284828.108467593789101, 56507.007111279875971 ], [ 284827.917242586554494, 56507.0994500379893 ], [ 284826.831550454662647, 56507.623484685987933 ], [ 284807.634572425682563, 56516.889300464295957 ], [ 286208.83054610673571, 59397.788510402599059 ], [ 286230.647239840007387, 59442.664136964805948 ], [ 286274.10685812990414, 59532.059669006936019 ], [ 286293.16350559995044, 59522.866285794872965 ], [ 286299.881231818755623, 59519.625482332536194 ], [ 286315.943628369132057, 59511.876429153882782 ], [ 286280.157327410648577, 59438.263485493873304 ], [ 286258.341005472640973, 59393.387712683164864 ], [ 286225.359095105726738, 59325.54579001237289 ], [ 286196.587451425672043, 59266.365369252802338 ], [ 286182.657433865708299, 59237.713042090916133 ], [ 286154.610509311314672, 59180.024813929296215 ], [ 286124.421957990969531, 59117.932539962304872 ], [ 286103.739398319681641, 59075.393122377965483 ], [ 286067.043927195831202, 58999.920006494168774 ], [ 286039.324585917231161, 58942.909562717286462 ], [ 285999.787651022255886, 58861.595685932355991 ], [ 285970.983737029600888, 58802.357266432591132 ], [ 285892.507968854450155, 58640.968199195856869 ], [ 285862.184871519100852, 58578.609439204905357 ], [ 285684.569109542062506, 58213.370486486906884 ], [ 285655.077176269027404, 58152.728798970056232 ], [ 285465.975863506959286, 57763.923031286620244 ], [ 285440.150046343216673, 57710.826853668695549 ], [ 285372.750260863336734, 57572.261397617628973 ], [ 285345.183838284516241, 57515.589923769315646 ], [ 285210.75777088542236, 57239.248902677216392 ], [ 285190.333511719072703, 57197.26451342751534 ], [ 285117.65399144688854, 57047.867961537609517 ], [ 285071.922492095152847, 56953.867994149848528 ], [ 284986.457304772688076, 56778.20352058205026 ], [ 284962.044900178269017, 56728.028202199173393 ], [ 284927.515649076143745, 56657.060734854545444 ], [ 284902.907092956535053, 56606.484134571117465 ], [ 284870.758561753260437, 56540.41207468893117 ] ] ] } }
]
}
